"Complete Name","Geo Latitude","Geo Longitude","Street","Street2","City","Country","Phone","Email","Tags"
"Ernie's Automotive Electronics", "40.2316917", "-74.1111321", "3212 Shafto Road", "", "Tinton Falls", "United States", "+1 732-838-3181", "Erniesautomotiveelectronics@gmail.com", "Dealer"
"110 Customs","41.7298265","-88.3560065","1451 Aucutt Road","","Montgomery","United States","'+1 630-300-3886","daniele@110customs.com","Dealer"
"1170 Designs","41.7073639","-71.4912731","1170 Bald Hill Road","","Warwick","United States","'+1 401-415-0778","jennifer@1170designs.net","Dealer"
"12 Volt Car Audio & Security","43.7538559","-79.6187584","1 Steinway Blvd","Unit 8","Etobicoke","Canada","'+1 416-748-5803","sebastiansliwinski1@gmail.com","Dealer"
"12 Volt Precision","41.4177229","-81.8049717","15375 Brookpark Rd.","Unit C","Brookpark","United States","'+1 216-712-1243","tyler.anderson@12voltprecision.com","Dealer"
"12 Volt Specialist","39.6502645","-75.7156452","42 Albe Drive","Suite B","Newark","United States","'+1 302-319-3600","12voltspecialistllc@gmail.com","Dealer"
"12v Accessories","42.6248602","-71.3525527","181 Stedman St.","Unit 8","Lowell","United States","'+1 978-533-1632","lnieves@12vaccessories.com","Dealer"
"12volt Solutions","36.0788197","-95.8390828","12330 E. 60th Street","","Tulsa","United States","'+1 918-853-1389","clay@12volt.solutions, zach@12volt.solutions","Dealer"
"2 Loud Audio","41.6313","-70.9000668","44 Laurel St.","","Fairhaven","United States","'+1 508-989-6024","tommy.2loudaudio@gmail.com","Dealer"
"212 Motoring","40.5853352","-73.9273481","3939 Emmons Ave","","Brooklyn","United States","'+1 718-743-3200","mobileuniverse@aol.com","Dealer"
"290 Car Audio","29.9958045","-95.6773879","16726 Huffmeister Rd","Suite A200","Cypress","United States","'+1 281-758-4290","290caraudio@gmail.com","Dealer"
"316 Customs","37.6949094","-97.4252396","7110 W Central Ave","","Wichita","United States","'+1 316-239-7849","jordan@316customs.com","Dealer"
"360 Detailing Inc.","42.4934315","-70.8664829","35 Smith Street","Rear Unit","Marblehead","United States","'+1 781-990-3928","360detailingmhd@gmail.com","Dealer"
"41st. Street Auto","25.8595934","-80.2749971","394 E 41st Street","","Hialeah","United States","'+1 305-823-8804","mr41streetauto@hotmail.com","Dealer"
"4Wheels Auto Sound & Security","26.1669525","-80.1394347","547 East Oakland Park Blvd.","","Fort Lauderdale","United States","'+1 954-563-0838","contact@4wheelsautosound.com, 4wheelsmarinesound@gmail.com","Dealer"
"503 Motoring","45.4787078","-122.7794489","5703 SW Arctic Dr.","","Beaverton","United States","'+1 503-469-9821","iain@503motoring.com, dan@503motoring.com","Dealer"
"508 Audio Innovations","42.2533512","-71.8033702","8 Langdon st.","","Worcester","United States","'+1 508-933-4323","isaac508audioinnovations@yahoo.com","Dealer"
"5250 Motorsports","33.8732635","-117.9836359","270 Dale Place","","Fullerton","United States","'+1 949-204-0025","ocpilot@robotmail.us","Dealer"
"559 Car Stereo & Alarm","36.8048723","-119.790007","4794 N. Blackstone Ave.","","Fresno","United States","'+1 559-515-6020","559carstereo@gmail.com","Dealer"
"6 Autosound","34.0528738","-118.3067983","3225 W Olympic Blvd","#4","Los Angeles","United States","'+1 213-386-0737","sixautosound@yahoo.com","Dealer"
"718 Auto Sound & Security","40.6815231","-73.9049546","48 De Sales Pl","","Brooklyn","United States","'+1 718-574-3000","mike@718autosound.com","Dealer"
"740 Audio LLC","39.3379988","-82.073987","4 Grand Park Boulevard","","Athens","United States","'+1 740-592-4500","740athensaudio@gmail.com","Dealer"
"805 Motoring","34.2546496","-119.2355462","4505 Telephone Rd","Suite G","Ventura","United States","'+1 805-477-0040","sales@805motoring.com","Dealer"
"845 Auto Restylers","41.4138364","-73.912743","2461 Route 9","","Garrison","United States","'+1 845-242-4919","jsingh813@gmail.com","Dealer"
"901 Sounds","35.1865581","-89.8967155","2235 Covington Pike","#2","Memphis","United States","'+1 901-372-9922","info@901sounds.com","Dealer"
"919 Motoring","35.8583374","-78.5961126","5540 Atlantic Springs Rd","Ste 109","Raleigh","United States","'+1 919-872-4996","919motoringsales@gmail.com","Dealer"
"A Trendz Auto & Truck Accessory Shoppe","41.9967255","-87.8057634","6333 N Northwest Hwy","","Chicago","","773-763-0000","cmaltz17@comcast.net","Dealer"
"A to Z Auto Sound","40.8502774","-73.8675206","2000 White Plains Rd","","Bronx","","718-676-9447","atozautosound2000@gmail.com","Dealer"
"A&N Remote Starts and Electronics","37.2680684","-97.3952831","303 North B Street","","Wellington","","620-440-9048","rnjeffries1976@gmail.com","Dealer"
"A&S Installations","40.6248056","-75.4446235","805 E Keats St","","Allentown","","610-439-6644","asinstallation805@gmail.com","Dealer"
"A-1 Window Tinting","38.1927543","-84.8277675","103 Pulliam Dr.","","Frankfort","United States","'+1 502-472-3065","a1tinting@hotmail.com","Dealer"
"A-Z Electronics","49.9071527","-97.1848352","1378 Clifton St.","","Winnipeg","Canada","'+1 204-509-0204","a-zelectronics@hotmail.com","Dealer"
"A/V 2000 Inc. (Audio 2000)","34.063132","-118.3644674","6230 Wilshire Blvd","#1177","Los Angeles","United States","'+1 310-444-0966","virgil@audio2000.net","Dealer"
"A/V Electronic","33.9613345","-84.1422095","3780 Old Norcross Rd.","Suite 103-392","Duluth","United States","'+1 770-418-1793","sam@avelectronic.com","Dealer"
"A1 Furniture and Electronics","29.7352706","-95.6145432","12911 Westheimer Road","","Houston","","713-532-7800","murphycarstereo1@gmail.com","Dealer"
"ABC Automotive Electronics","42.0109845","-87.9652847","1401 Landmeier Rd.","","Elk Grove Village","","847-364-6700","ashley@abcautoelectronics.com; neil@abcautoelectronics.com,admin@abcautoelectronics.com","Dealer"
"ABS Storage Products Inc.","42.4173107","-83.1517504","8100 W. McNichols Road","","Detroit","","313-345-8700","larry@absstorageproducts.com","Dealer"
"ABT Electronics, Inc.","42.1067119","-87.8889797","1200 N Milwaukee Ave.","","Glenview","United States","'+1 847-954-4114","jsamp@abt.com","Dealer"
"AC Kustoms","41.8972792","-87.8719157","1120 N 31st Ave","","Melrose Park","United States","'+1 708-890-2376","ackustoms17@gmail.com","Dealer"
"ACI Vans (American Crafters Inc.)","33.4156715","-111.9906282","4202 E Elwood St","Ste 18","Phoenix","","602-883-9688","clayton@acivans.com","Dealer"
"ACJ Auto Tech LLC","40.6493017","-74.2160716","628 S Broad St","","Elizabeth","","908-469-0200","lvautotech20@gmail.com","Dealer"
"ACME Overland Limited Co.","40.7225493","-111.9711637","2236 South 3270 West","Ste 2","West Valley City","United States","'+1 847-287-9639","hello@acmeoverland.com","Dealer"
"ACT Audio","41.8476159","-72.484306","458 Talcottville Road","Ste. C","Vernon","United States","'+1 860-870-7676","actaudio@yahoo.com","Dealer"
"AI Design","40.9513085","-73.8206179","64 Marbledale Rd.","","Tuckahoe","","914-779-9000","matt@aidesign.com","Dealer"
"AJ Electronics Chicago","41.806039","-87.8298382","8346 47th Street","","Lyons","United States","'+1 773-512-0083","ajelectronicschicago@gmail.com","Dealer"
"ALLSTAR Service Center and Accessories","46.8008179","-92.1230447","329 E Central Entrance","","Duluth","","218-279-5200","Darin@allstarduluth.com","Dealer"
"AMG Luxury Vehicles","39.5872188","-94.682313","15301 SE State Route E","","Agency","","816-477-4381","sales@amgluxuryvehicles.com, jmuller@amgluxuryvehicles.com","Dealer"
"AMS (Advance Mobile Security)","35.3924977","-119.0431856","3625 Buck Owens Blvd","Ste 5","Bakersfield","","661-322-8822","ams93308@aol.com","Dealer"
"AP Sounds & Customs","33.8187167","-117.9086518","1125 S. Anaheim Blvd.","","Anaheim","","714-808-1612","ap12volt@gmail.com","Dealer"
"APM Auto Trim Design","41.8104928","-85.3346883","31840 E. Chicago Road","","Sturgis","","269-689-4081","scottmccallum3@gmail.com","Dealer"
"APNA Customs","49.1701325","-122.8898272","9182 120 St","","Surrey","Canada","'+1 778-700-0193","apnacustoms@gmail.com","Dealer"
"ASE Auto Sound and Electronics","39.2263067","-76.7825442","5364 Dunteachin Dr.","","Ellicott City","","443-310-9776","asebmore@gmail.com, asebmore@protonmail.com","Dealer"
"AT230 Cars and Coffee","33.9316899","-117.9441999","230 E. La Habra Blvd","","La Habra","","626-831-6628","at230us@gmail.com","Dealer"
"ATO Autosports","39.3979458","-76.5389965","2207 East Joppa Road","","Parkville","","410-668-8900","atotowson@yahoo.com","Dealer"
"AV Electronic","33.9613345","-84.1422095","3780 Old Norcross Rd.","","Duluth","","770-418-1793","sam@avelectronic.com","Dealer"
"AV-Tech Electronics","39.7777975","-105.1435418","12851 W 43rd Dr.","Ste 1","Golden","","303-288-0313","kbartholemew@avtechelectronics.com","Dealer"
"AVI","42.3161347","-71.2091765","14 Needham St.","","Newton","","617-928-1188","info@aviboston.com","Dealer"
"Abe's Custom Car Care Inc.","41.542901","-87.8235704","8515 W. 191st.","Unit 28","Mokena","","708-710-7300","abescustomcarcare@gmail.com","Dealer"
"Abec","33.6128556","-111.9763176","13835 N. Tatum Blvd.","Suite 9-214","Phoenix","United States","'+1 602-622-1190","chrisbok@cox.net, abecoe@gmail.com","Dealer"
"Able Locksmith & Security","40.7167781","-73.3176738","980 Sunrise Hwy","","West Babylon","","631-587-7278","info@ablelock.com","Dealer"
"Absolute Autoguard","49.93791","-97.1686438","1200 Fife St.","","Winnipeg","Canada","'+1 204-928-7000","batchison@absoluteautoguard.com","Dealer"
"Absolute Electronix Inc","39.1161913","-77.1653417","15837 Redland Road","","Rockville","United States","'+1 240-654-1283","ata@absoluteelectronix.com","Dealer"
"Abushi Automotive Group","40.7276596","-73.9245854","44-03 56th Road","","Maspeth","","718-729-5300","info@abushi.com","Dealer"
"Acadian Ambulance","30.233759","-92.020004","298 Hopkins St","","Lafayette","United States","","pfaulk@acadian.com; brandon.harkins@acadian.com","Dealer"
"Accelerated Industries","42.0960271","-88.0288245","3750 Industrial Ave.","Unit D","Rolling Meadows","United States","'+1 952-681-1000","rudy@acceleratedindustries.com","Dealer"
"Accelerated Media Technologies","42.2019486","-71.8199174","19 Technology Dr.","","Auburn","","508-459-0300","tkempskie@acceleratedmt.com","Dealer"
"Access 1 Alarm & Audio","41.4655507","-81.7584497","10418 Lorain","","Cleveland","","216-252-3000","info@access1alarm.com","Dealer"
"Ace Tire And Wheel","41.762364","-87.8008365","7100 S Harlem Ave","","Bridgeview","","708-594-0300","jcacevesacetire@gmail.com","Dealer"
"Ace of Shades Window Tinting (C&D Tint)","41.2355362","-85.8082277","1787 E Kosciusko Dr.","","Warsaw","","260-388-2476","Aceofshadeswindowtinting6@gmail.com","Dealer"
"Aces Automotive","40.890996","-74.1044043","781 Midland Ave","","Garfield","","973-928-2100","","Dealer"
"Acorn Vans DBA Vanbuilders","40.7193697","-112.0233246","5544 W 2400 S","","West Valley City","","385-252-5058","brandon.ramsay@vanbuilders.com","Dealer"
"Action Auto Sound and Security LLC","38.3536496","-77.5128759","33 McWhirt Loop","Ste 111","Fredericksburg","","540-479-1228","actionautosound@gmail.com","Dealer"
"Action Glass LLC","41.8769286","-72.6086488","237 S. Main St.","","East Windsor","","860-748-0759, 860-623-7722","actglsllc@aol.com","Dealer"
"Action Van","33.3828773","-111.826117","240 E. Coury Ave","","Mesa","","480-579-3969","info@actionvan.com","Dealer"
"Active Sound","33.7738035","-116.9714948","1373 S. State Street","","San Jacinto","","951-541-6463","activesoundcaraudio@gmail.com","Dealer"
"Adaptive Sounds","35.5712006","-97.5575568","2509 King Way","","Oklahoma City","","405-335-0244","fmejiajr@gmail.com","Dealer"
"Adrenaline Motorsports of Naples","26.2548716","-81.6012799","288 14th Ave NE","","Naples","","239-784-3995, 239-784-3995","elizzard50@yahoo.com","Dealer"
"Adrenaline Vans LLC","38.4118736","-107.8494543","19107 US 550","Unit # 103","Montrose","","970-318-6055","tim@adrenalinevans.com; accounting@adrenalinevans.com","Dealer"
"Advance Auto Security Mobile","51.0582655","-113.9878024","3208- 8 Ave NE","Bay #507","Calgary","Canada","'+1 403-701-4388","advanceautosecurity@shaw.ca","Dealer"
"Advance Automotive LLC","42.6166459","-83.9675115","1119 Willow Lane","","Howell","","734-729-2198","blackwidowlock@att.net","Dealer"
"Advance Camping Sales","42.9594385","-87.9933808","W Layton Ave","","Greenfield","","414-281-6330","advancecamp@aol.com","Dealer"
"Advanced Audio (Wichita)","37.6785021","-97.258562","6701 E Kellogg Drive","","Wichita","","316-687-0277","advanceaudiokansas@gmail.com","Dealer"
"Advanced Audio Concepts","26.2141448","-80.131232","1224 South Dixie Highway East","","Pompano Beach","","954-788-8200","advancedaudioconcepts@hotmail.com","Dealer"
"Advanced Audio Designs","42.1347376","-71.1711448","210 North Main Street","","Sharon","","781-784-7974","","Dealer"
"Advanced Auto Body","41.4523604","-71.4992186","Michael Pucino","","Kersey Road Wakefield","","401-783-0015","ronnypucino@yahoo.com","Dealer"
"Advanced Automotive Accessoriez Inc.","41.7244736","-88.2259956","10S059 Schoger Dr.","","Naperville","","630-340-2720","advancedauto2010@hotmail.com","Dealer"
"Advanced Automotive Concepts","42.5256673","-70.921891","55 Walnut St.","","Peabody","","","","Dealer"
"Advanced Car Stereo","34.0910502","-117.6891056","8975 Central Ave.","","Montclair","","909-482-0555","advancedstereo4@gmail.com","Dealer"
"Advanced Dealer Services","37.4682107","-121.9187779","48511 Warm Springs Blvd.","","Fremont","","408-923-5000","karnold@adsmobile.net","Dealer"
"Advanced Installations","43.6131875","-79.6120289","960 Burnhamthorpe Rd. E","","Mississauga","Canada","'+1 905-629-3020","oemdirect@hotmail.com","Dealer"
"Advanced Mobile Accessories","46.560261","-87.4545661","2905 Wright St.","","Marquette","","906-226-2620","ama906mqt@gmail.com","Dealer"
"Advanced Mobile Audio","42.404316","-71.1480776","87 Lake St.","","Arlington","","781-646-8000","","Dealer"
"Advanced Mobile Electronics","28.2737365","-80.7145761","1608 Kestrel Ct.","","Viera","","321-432-8826","john@johnnyremote.com","Dealer"
"Advanced Mobile Electronics (Vegas)","36.223446","-115.1739625","2237 W Gowan Rd.","","North Las Vegas","","702-646-4368","tomlvame@gmail.com","Dealer"
"Advanced Motorsports Stereo","34.0718087","-117.6896517","Mohamad  Saman","","Central Ave Montclair","","909-482-0555","advancedstereo4@gmail.com","Dealer"
"Advanced Pest Control","41.9387552","-87.7388377","4445 W. Belmont Ave.","","Chicago","","773-789-9789","","Dealer"
"Advanced RV","41.6316749","-81.422215","4590 Hamann Parkway","","Willoughby","","440-283-0405","FrankK@Advanced-RV.com; jefff@advanced-rv.com; rutha@advanced-rv.com; vikib@advanced-rv.com; amym@advanced-rv.com; joshl@advanced-rv.com","Dealer"
"Advanced Security Installations inc","41.8997693","-87.8637988","1401 N. 25th Ave.","","Melrose Park","","708-345-6711","asiinc@yahoo.com","Dealer"
"Advanced Sound & Tint","47.8025682","-122.3287941","21619 Hwy 99","","Ste G Lynnwood","","425-672-8866","advancedsoundandtint@yahoo.com","Dealer"
"Advanced Sound And Performance","37.1197982","-113.5452454","1749 E Red Hills Parkway","","George","","435-673-2727","","Dealer"
"Advanced Systems Services, Inc.","34.1077873","-117.6901462","1082 Airport Drive","","Upland","","909-949-9944","reed@advancedsystemsservices.com","Dealer"
"Advantage Outfitters","40.871044","-74.0515404","255 West Street","","South Hackensack","United States","'+1 866-925-4844","lance.markham@advantageoutfitters.com","Dealer"
"Advantage Toyota","41.6016126","-87.5730295","1970 River Oaks Drive","","Calumet City","","708-862-0700","dgorski@advantagedealer.net","Dealer"
"Adventure Van","39.0910844","-108.5921137","2486 Commerce Blvd.","","Unit A Grand Junction","","800-938-0118","sales@adventurtevanco.com","Dealer"
"Adventure Van Expo","39.19138","-120.104816","Neil Morse","","Observation Drive Tahoe City","","530-448-1944","neil@adventurevanexpo.com","Dealer"
"Aero Car Parts","53.5093175","-113.4188207","7304 50st. NW","","Edmonton","Canada","'+1 780-440-6017","rick@aerocarparts.net","Dealer"
"AfterFX Customs/Performance Outfitt","41.0708278","-73.5193468","20 Crescent St.","","Stamford","","203-975-1188","jon@afterfxcustoms.com","Dealer"
"Aftermarket Guru LLC","36.0852286","-115.1941769","5770 Wynn Road","","Las Vegas","United States","'+1 702-818-4899","aftermarketgurulv@gmail.com","Dealer"
"Aftermarket Impressions","39.5176029","-107.3177992","3330 South Glen Ave.","","Glenwood Springs","","970-930-1005","aftermarketimpressions@gmail.com","Dealer"
"Aftermarket Products & Services (AMPS)","33.9722188","-117.5562087","6372 Altura Lane","","Eastvale","","951-741-1028","goamps@gmail.com","Dealer"
"Agile Performance Inc.","32.8468506","-116.9598337","10928 Wheatlands Ave.","","Suite B Santee","","619-328-1297","purchasing@agileoffroad.com","Dealer"
"Ai Vinyl Graphics & Mobile Electronics In","40.9076798","-73.7854301","355 Huguenot St.","","New Rochelle","","914-636-0555","John@AiVinylGraphics.com","Dealer"
"Airwaves","41.0604162","-80.7308919","4074 Pleasant Valley Lane","","Canfield","","330-799-5184","jcessna@airwavesgps.com","Dealer"
"Al & Ed's (San Diego)","32.7530851","-117.2034805","3794 Rosecrans St.","","San Diego","","619-380-2700","jcalderon@al-eds.com","Dealer"
"Al & Ed's Autosound #4 (Audio Solutions)","34.0397648","-118.3775332","2025 S. La Cienega Blvd","","Los Angeles","","310-836-5550","pattarchi@al-eds.com","Dealer"
"Al & Ed's Autosound #8","34.1799066","-118.5416127","18720 Oxnard St.","","Tarzana","","818-804-2883","elamano@al-eds.com","Dealer"
"Al & Ed's Autosound (Burbank)","34.1772737","-118.3180879","340 N Victory Blvd.","","Burbank","","818-260-0869","reshemula@al-eds.com","Dealer"
"Al & Ed's Autosound (Santa Monica)","34.0340667","-118.479348","2410 Wilshire Blvd.","","Santa Monica","","310-820-8446","jdelgado@al-eds.com","Dealer"
"Al & Ed's Autosound / AE Distributing","34.0156096","-118.2784997","3761 S. Hill St","","Los Angeles","","818-908-5700","ocanche@ae-distrubiting.com","Dealer"
"Al's Creative Autosound Inc.","38.3083141","-104.6392541","2150 Kachina Drive","","Pueblo","","719-561-3400","alscreativeinvoices@outlook.com","Dealer"
"Al-Van Equip NW Inc.","47.4321495","-122.3169656","19050 13th Place South","","SeaTac","","206-988-6100","amanda@alvanequip.com; Steve@alvanequip.com","Dealer"
"Alabama Truck Outfitters","33.4477825","-86.8417612","130 W. Oxmoor Road","","Homewood","","205-407-8205","alex@alabamatruckoutfitters.com","Dealer"
"Alamo Auto Supply","31.7814504","-106.4172326","5923 Gateway Blvd West","","El Paso","","915-781-1234","scorral@alamoauto.com","Dealer"
"Alamo Autosound & Security","29.5162223","-98.4928904","Patrick Moore","","Mccullough San Antonio","","210-737-8252","pmooretx@hotmail.com","Dealer"
"Alarmtronix LLC","43.0218766","-88.0175561","855 S 84th Street","","West Allis","","414-645-4477","alarmtronix@att.net","Dealer"
"Alex's One Stop Shop","41.7281936","-87.8066421","7506 West 90th St.","","Bridgeview","","708-598-9700","alex@amisinc.us","Dealer"
"All American Audio, LLC","40.7717962","-74.1909135","147 N 17th St","","Bloomfield","","862-202-5755","allamerican_audio@yahoo.com","Dealer"
"All Around Mobile Sound","39.7497234","-121.8443066","1901 Mangrove Ave.","","Chico","","089-191-8697","allaroundchico@yahoo.com","Dealer"
"All Brooklyn Auto Sound Corp","40.6039156","-73.9533691","Bernardo Perez","","th Ave Brooklyn","","347-462-9492","uchimata35@hotmail.com","Dealer"
"All German Auto","33.121157","-117.1059235","1327 Simpson Way","","Escondido","","760-738-4626","todd@allgermanauto.com","Dealer"
"All Points Automotive, Inc.","33.8658858","-118.3555903","2923 182nd St.","","Redondo Beach","","310-793-7233","all-points@verizon.net","Dealer"
"All Pro Audio","37.3235185","-121.9840149","4611 Stevens Creek Blvd.","","Santa Clara","","408-244-5577","","Dealer"
"All Pro Customz","40.8798884","-74.0966592","230 Gaston Ave.","","Garfield","","973-767-4488","allprocustomz@gmail.com","Dealer"
"All Star Wireless","32.807617","-96.4803526","Attn: Adam Solla","","Sublime Drive Heath","","925-265-3248","sales@all-star-wireless.net","Dealer"
"All Terrain Audio Video","36.6801219","-119.7430404","3631 S Bagley Ave.","","Fresno","","559-349-8905","randy@allterrainav.com","Dealer"
"All That Jazz Sound & Security","39.975114","-75.2217788","4977 Lancaster Ave.","","Philadelphia","","215-545-5293","flavius@allthatjazzphilly.com","Dealer"
"All-Guard Auto Alarms","41.6754638","-87.7378255","11935 S Cicero Ave.","","Alsip","","708-371-3766","allguardauto@hotmail.com","Dealer"
"AllBoro Custom","40.721134","-73.945589","148 Newton St","","Brooklyn","","718-388-1100","jacomaz@msn.com","Dealer"
"Allout Offroad Performance","29.5875607","-95.7495334","708 Hwy 90A","","Richmond","","281-341-9494","","Dealer"
"Allroad Outfitters Inc.","34.281933","-118.799466","90 W Cochran St.","","Unit C Simi Valley","","818-419-9107","austin@allroadoutfitters.com","Dealer"
"Alpenvans","26.1039127","-80.1450268","201 SW 14th Ct.","","Fort Lauderdale","","904-377-1385","mm@gomercate.com","Dealer"
"Altec Products Inc.","45.2257065","-93.2384868","14050 Lincoln St. NE","","Ham Lake","","763-785-9035","","Dealer"
"America's Sound","26.6276002","-80.1135812","3379 S Military Trail","","Lake Worth","","561-965-6366","poweraudio@att.net","Dealer"
"American Audio Concepts","29.697594","-95.6510533","Raheem Meghani","","Houston","","281-495-3993","americanaudioconcepts@gmail.com","Dealer"
"American Automotive Aftermarket","42.5210557","-71.2320602","50 Dunham Rd","","Billerica","","866-783-6222","jb@aaaworktrucks.com; leslie@aaaworktrucks.com","Dealer"
"American Coach Sales","41.483528","-81.7696667","11723 Detroit Ave","","lakewood","United States","'+1 216-543-3982","americancoachsales3@gmail.com","Dealer"
"American Customs","39.9615771","-86.0053863","11771 Technology Dr.","Suite 100","Fishers","United States","'+1 317-915-8588","jbstieglitz@yahoo.com","Dealer"
"American Dream RV Service","41.952228","-85.7990955","58151 M-40","","Jones","","574-322-9584","adrvservice@yahoo.com","Dealer"
"American Fleet & Auto","37.7060187","-121.0007771","4609 Glass Ct.","Ste 5","Modesto","","209-521-4609","dzaristo@aol.com","Dealer"
"American Power Systems, Inc.","41.5216703","-90.5796054","426 W 2nd St.","","Davenport","","563-323-7994","b.plambeck@americanpowerinc.com","Dealer"
"American Radio","30.3056876","-81.5647777","8810 Corporate Square Ct.","Ste. 101","Jacksonville","","904-725-6778","dboehnke@americanradio.net","Dealer"
"American Radio (Knoxville)","35.9249229","-84.0516869","8105 Kingston Pike","","Knoxville","","865-694-8117","ccrowe@americanradio.net","Dealer"
"Amped Auto and Auto Accessories","44.0440142","-92.5124827","3269 19th St NW","","Rochester","","507-322-6393","ampedauto2016@gmail.com","Dealer"
"Amped Up Customs","41.7462476","-71.4300447","422 Chestnut St.","","Warwick","","401-932-9320","dylanb12797@gmail.com","Dealer"
"Amped, Inc.","43.2194912","-86.2508383","301 W. Laketon Ave.","","Muskegon","","616-638-1072","chris.brott@amped-inc.com","Dealer"
"Amplified AutoSports","27.8115476","-82.6758459","4300 31st Street North","","St Petersburg","","813-876-0373","danny@amplifiedautosports.com","Dealer"
"Amplified Off Road","29.5275873","-81.2625093","4500 N US Hwy 1","Unit 201","Bunnell","","386-313-6177","amplifiedtravis@gmail.com","Dealer"
"Apache Village RV Center","38.7780031","-90.3523314","9001 Dunn Road","","Hazelwood","","314-895-4567","jlmeyer@apachevillagerv.com","Dealer"
"Apicella Auto Sound","41.2162947","-73.9830658","11 Holt Drive","Suite 123","Stony Point","","845-274-4357","nick@apicellaautosound.com","Dealer"
"Appalachian Auto and Truck","35.5915004","-82.5756132","30 Westgate Pkwy","Unit 173","Asheville","","828-734-8693","sales@carandtruckcentral.com","Dealer"
"Applied Physics (1st Radar Detectors)","37.5791696","-106.1480842","400 N. County Road","","E Monte Vista","","303-678-9101","F.John.Turner@appliedphysicsusa.com","Dealer"
"Aristocrat Motors","39.0113606","-94.6947799","9400 W. 65th St.","","Merriam","","913-238-6338","","Dealer"
"Arkansas Car Stereo","34.6840631","-92.3449814","6100 Forbing Road","","Little Rock","","501-562-0064","rick_holmes@sbcglobal.net","Dealer"
"Armadillon Audio/Mobiletec Audio","39.9353206","-91.3373953","4901 Broadway Street","","Quincy","","217-242-7472","shawn@mobiletecaudio.com","Dealer"
"Armando Sounds","42.0143672","-87.803894","7320 N Milwaukee Ave","","Niles","","773-866-9700","","Dealer"
"Artek","45.579372","-122.6445768","7739 NE 21st Avenue","","Portland","","503-558-6447","claire@artek.energy","Dealer"
"Aspen Sound","47.7241965","-117.4105612","7316 N Division","","Spokane","","509-927-3787","kpayne@aspensound.com; kpeacock@aspensound.com","Dealer"
"Aspen Sound (Coeur D Alene)","47.7526407","-116.7856336","8886 N. Goverment Way","","Hayden","","208-667-6995","CSZABROWICZ@ASPENSOUND.COM","Dealer"
"Aspen Sound (Idaho)","43.6190257","-116.2794341","7807 W. Fairview Ave.","","Boise","","208-376-2100","anyland@aspensound.com","Dealer"
"Astorg Motorcars","39.2680667","-81.5207313","2028 7th St.","","Parkersburg","","304-685-3591","eddieprice@astorg.auto","Dealer"
"At Speed Motorsports","39.1794096","-76.7636794","7389 Washington Blvd","Unit 103","Elkridge","","'+1 410-395-4025","","Dealer"
"Atlas Vans (Humble Handcraft)","34.2832352","-119.301266","48 Fix Way","","Ventura","","805-272-5394","sales@atlasvans.com","Dealer"
"Attention To Detail","41.5605561","-72.6470197","195 Dekoven Dr.","","Middletown","","'+1 860-347-0141","dan@atdl.com","Dealer"
"Auburn Car Tunes","38.955062","-121.100331","3910 Grass Valley Hwy","","Auburn","","530-885-5132","auburncartunes@gmail.com","Dealer"
"Audio Addiction","33.5204218","-117.1627218","27452 Jefferson Ave.","Suite 6A","A Temecula","","951-699-7509","audioaddictioninc@gmail.com","Dealer"
"Audio Advisors","26.7095166","-80.0987869","2271A Palm Beach Lakes Blvd.","","West Palm Beach","","561-478-3100","valerie@atapb.com, jeritb@atapb.com","Dealer"
"Audio Anarchy LLC","32.4887461","-93.7236817","2405 Youree Dr.","","Shreveport","","318-606-2153","audioanarchysp@gmail.com","Dealer"
"Audio Answer, Inc","42.366595","-71.2301877","152 High St","","Waltham","","617-964-1791","audioanswer@msn.com","Dealer"
"Audio Car LLC.","33.741158","-116.358164","74868 Joni Dr.","Suite A6","Palm Desert","","442-334-7190","audiocar.us@gmail.com","Dealer"
"Audio Central","32.3396563","-90.0913998","4246 Lakeland Dr","","Flowood","","'+1 601-936-8155","audiocentral764@bellsouth.net","Dealer"
"Audio Clinic Inc.","40.7874642","-74.152393","86 Rutgers Street","","Belleville","","973-759-0006","audioclinicnj@gmail.com","Dealer"
"Audio Design","37.3228879","-121.97526","4180 Stevens Creek Blvd.","","San Jose","","408-241-4300","mike@audiodesignsj.com","Dealer"
"Audio Excellence","28.6560439","-81.214226","385 West Mitchell Hammock","","Oviedo","United States","'+1 407-977-8790","ae.phil@hotmail.com","Dealer"
"Audio Experience","36.0770843","-95.857486","5901 S 107th E Ave.","Ste 206","Tulsa","United States","'+1 918-417-9540","Zach@audioexperiencetulsa.com","Dealer"
"Audio One (CA)","32.622758","-117.085887","741 Broadway","","Chula Vista","United States","'+1 619-349-0304","broadwayaudio1@gmail.com","Dealer"
"Audio Performance LLC","32.0635998","-81.0454488","2700 Gregory St.","","Savannah","","904-434-6354","audioperformancesav@gmail.com","Dealer"
"Audio Pro Home and Car LLC","40.538446","-74.6870944","1173 Orchard Dr.","","Hillsborough","","908-904-9300","audioprosllc@gmail.com","Dealer"
"Audio Sensations LLC","38.9705682","-94.7289111","Chad Peterson","","","","623-566-2244","chad@audiosensationsaz.com","Dealer"
"Audio Specialists LLC","41.7355974","-86.2515478","52139 State Route 933","","South Bend","","574-271-2700","bruno@2712700.com","Dealer"
"Audio System","29.7225513","-95.4863015","5402 Renwick Dr","","Houston","United States","832-874-0648, 832-974-9701","contact@audiosystm.com","Dealer"
"Audio Wizard (Integrated Lifestyle LLC)","40.5142591","-111.9018389","386 W Redberry Road","","Draper","","801-997-0562","dustin@audiowizardav.com","Dealer"
"Audio916 (POLORUS LLC)","38.5917746","-121.2661685","3068 Sunrise Blvd.","","Suite C Rancho Cordova","","916-936-1001","olga@audio916.com","Dealer"
"AudioBarn","42.9907675","-70.9270477","155 Portsmouth Ave.","","Exeter","","603-775-0900","audiobarnnh@gmail.com","Dealer"
"Audiolegends LLC","40.6031825","-73.6519064","4370 Austin Blvd.","","Island Park","","516-600-9289","a.romero87@yahoo.com","Dealer"
"Audiovision LLC","34.7182272","-92.3497319","6618 Colonel Glenn Road","","Little Rock","","501-565-0102","audiovllc@gmail.com","Dealer"
"Audiowerks Inc.","42.5858147","-71.1992622","2111 Main Street","","Tewksbury","","978-988-1444","troy@audiowerks.net","Dealer"
"Auto Addictions, LLC","40.3739069","-79.9825733","3350 Saw Mill Run Blvd.","","Pittsburgh","","412-927-0495","autoaddictions@live.com","Dealer"
"Auto Image (Itzad LLC)","37.5911778","-77.5045934","5810 W. Broad St.","","Richmond","","804-282-3152","itzad@aol.com","Dealer"
"Auto Integration LLC (West Allis)","43.0169374","-88.0167406","Phil M Plagge","","West Allis","","414-708-8948","philplagge@gmail.com","Dealer"
"Auto Obsessions, LLC","41.663678","-86.0917494","1724 Lincolnway West","","Osceola","","574-276-1255","rhodesba@me.com","Dealer"
"Auto Overhaul LLC","28.5531598","-81.34975","David Spurlock","","E Colonial Drive Orlando","","407-496-9958","dspur321@hotmail.com","Dealer"
"Auto Sound Security","41.6266903","-81.4339502","35535 Euclid Ave.","","Willoughby","United States","'+1 440-951-1440","sales@autosoundohio.com","Dealer"
"Auto Toyz","41.6289268","-91.5702855","4172 Alyssa Ct.","","Suite E Iowa City","","319-338-7020","autotoyzllc@msn.com","Dealer"
"Auto Unlimited LLC","40.7232489","-74.2166001","852 Clinton Ave.","","Newark","","201-532-8001","cubanthug007@yahoo.com","Dealer"
"Automaxx LLC","41.4495404","-74.4002129","212 Wisner Ave.","","Middletown","","845-518-7122","john@automaxxhv.com","Dealer"
"Automotive Electronic Solutions LLC","40.1506124","-74.8547711","81 Gamewood Rd","","Levittown","","267-580-9722","aesinstallationspa@gmail.com","Dealer"
"Automotive Mobile Garage LLC","40.6847061","-74.2384655","1130 Morris Ave.","","Union","","908-848-1124","amg.autorepairs@gmail.com; flechascolombia@hotmail.com","Dealer"
"Automotive Sound & Protection ASAP","40.1331447","-75.3917668","109 Sandtrap Court","","Norristown","United States","'+1 610-825-0455","asapaudio@gmail.com","Dealer"
"Automotive Specialty Systems LLC","41.4224825","-72.8382628","6 Scrub Oak Road","","North Haven","","203-312-7728","dave@assctllc.com","Dealer"
"Autosport Plus LLC","40.831655","-81.3454562","2136 Columbus Rd NE","","Canton","","330-454-5705","kris@autosportplus.com","Dealer"
"Autotech","34.2696126","-118.870489","13743 Bear Valley Rd.","","Moorpark","United States","'+1 805-523-8996","edhurley@pacbell.net","Dealer"
"BLACK LABEL AUTO STYLING, LLC","28.5004616","-81.3781866","3939 Forrestal Ave Ste 300","","Orlando","United States","'+1 407-674-6060","aundre@blacklabelauto.net","Dealer"
"BMB Motorworks LLC","41.7096905","-71.904602","142 Norwich Road","","Plainfield","","860-230-2222","bmbmotorworks@yahoo.com","Dealer"
"Bay Radio and Alarm","37.9096695","-122.06292","2149 N Broadway","","Walnut Creek","","510-957-7757","bayradioandalarm@gmail.com","Dealer"
"Beach Auto Sound","33.7005475","-117.9885161","18042 Beach Blvd.","","Huntington Beach","United States","'+1 714-848-5400","tom@beachautosound.com","Dealer"
"Beachside Custom Vans","30.3367007","-81.4208855","1545 Main st","Suite 100","Atlantic Beach","United States","'+1 954-309-0195","alex@beachsidecustomvans.com","Dealer"
"Big Black Dog, LLC.","34.0006807","-83.8910203","Hank Simon","","Merrion Park Lane Dacula","","201-906-2026","bbd_1@comcast.net","Dealer"
"Big Fat Custom's LLC","42.0273149","-87.8951988","1424 Lee St.","","Suite B Des Plaines","","224-567-5835","rafi.bigfatcustoms@gmail.com","Dealer"
"Boston Audio Design","42.2519682","-70.9875345","659 Southern Artery","","Quincy","United States","'+1 617-479-2105","MATTWILLIAMS1028@GMAIL.COM","Dealer"
"Bowtie Connection, Inc.","25.921091","-80.2863986","5260 NW 163RD St","","Miami Lakes","United States","'+1 305-879-7467","LARGE@BOWTIECONNECTION.NET","Dealer"
"Branded Customs","32.9234589","-96.4070426","2425 East Interstate 30","","Rockwall","United States","'+1 972-270-4225","jayden@brandedcustoms.com","Dealer"
"Bros Kustom Auto LLC","37.9644378","-100.8478204","203 Campus Dr.","","Garden City","","620-640-2290","broskustomauto@gmail.com","Dealer"
"California Car Audio","32.6167489","-117.0836346","915 Broadway","Suit 2","Chula Vista","United States","'+1 619-500-5151","caraudio915@gmail.com","Dealer"
"Campfrye LLC","39.4462578","-119.7615141","9410 Prototype Dr.","","Reno","","775-525-7890","dave@campfyre.com","Dealer"
"Car Audio & Security, LLC","41.6671695","-87.716451","53320 W. 124th St.","","Alsip","","708-762-3788","vendors@caraudiollc.com","Dealer"
"Car Concepts","40.7444381","-111.8917204","1130 South Main St.","","Salt Lake City","United States","'+1 801-467-0212","max@carconceptsslc.com","Dealer"
"Car Essentials (Boomer Mcloud)","42.6859957","-73.7961646","1029 Central Ave","","Albany","United States","'+1 518-438-3000","richard@boomer-mcloud.com","Dealer"
"Car Toys","47.6227313","-122.3339013","400 Fairview Avenue North","","Seattle","","206-443-0980","jsorrell@cartoys.com; kbiederer@cartoys.com: accountspayable@cartoys.com","Dealer"
"CarLogic LLC","39.376674","-76.6011732","700 Murdock Road","","Baltimore","","410-861-2424","bsheridan@carlogicmd.com","Dealer"
"Carolina Ridez 1 LLC","36.005846","-79.8015411","311 B Shoffner Ct.","","Greensboro","","336-965-2667","mrwicker87@carolinaridez.com","Dealer"
"Cartronics (Keiths Sound & Security LLC)","25.92805","-80.1907321","490 NE 167th Street","","North Miami Beach","","305-945-8300","keithd9244@gmail.com","Dealer"
"Cartunes of Atlanta","33.9896065","-84.3510638","8601 Roswell Rd.","","Atlanta","United States","'+1 404-256-5600","sales@cartunesatlanta.com","Dealer"
"Chex Vanz","38.7495526","-77.5454997","9424 Contractors Court","","Manassas","United States","'+1 703-646-1933","robin@chexvanz.com","Dealer"
"Cincy Security and Sound LLC","39.28485","-84.3016438","9380 Union Cemetery Road","","Loveland","","513-512-5581","sales@cincysecuritysound.com","Dealer"
"City Tints LLC","41.3707485","-73.0869087","688 Derby Ave.","","Seymour","","203-879-2877","citytintsllc@att.net","Dealer"
"Classic Collision Repairs Inc.","42.4694476","-83.4737408","24400 Novi Road","","Novi","United States","'+1 248-735-4505","CARSOFNOVI@GMAIL.COM","Dealer"
"Custom Sound and Image, LLC","41.7084061","-93.5990261","117 SE Lorenz Drive","","Ankeny","","515-401-8373","customsoundandimage@gmail.com","Dealer"
"DC Mobile Electronics LLC","34.04875","-84.5541529","Dale Jones","","Brentview Place Kennesaw","","404-886-7562","dalejones44@gmail.com","Dealer"
"DV Audio and Customs LLC","33.1152506","-117.1142797","2080 Wineridge Place","","Suite D Escondido","","760-689-8205","dvaudiocustoms@gmail.com","Dealer"
"Darkstar Sales LLC","40.1879985","-74.0447728","Alex Donofrio","","Benton Place Neptune","","908-839-3705","darkstarsalesnj@gmail.com","Dealer"
"Dashworks LLC (Diverse Auto LLP)","42.281012","-85.6237535","Andy Khazad","","West Michigan Ave Kalamazoo","","269-459-1183","andywerksalot@gmail.com","Dealer"
"Dealer Electronic Services, LLC","32.9269335","-80.035503","2116 Hayne Street","","Charleston","","843-200-2011","descharleston@gmail.com","Dealer"
"Delivery","41.8652681","-87.8050072","7213 Roosevelt Rd.","","Forest Park","United States","","","Dealer"
"Delivery","41.82867","-87.789519","6631 Ogden Ave","","Berwyn","United States","","","Dealer"
"Devine Concepts","26.304851","-81.7959979","14848 Old 41 Road","","Naples","","239-451-3210","adam@devine-concepts.com; isaac@devine-concepts.com","Dealer"
"Down South Customs","26.0801112","-80.1738181","3406 SW 26th Terrace","","Fort Lauderdale","United States","'+1 954-609-1812","downsouthcustomsfl@gmail.com","Dealer"
"Eastside Mobile Electronics LLC","45.5283043","-122.5328399","12701 N. East Oregon St.","","Portland","","503-309-1549","rogerk-eme@comcast.net","Dealer"
"EcoTech Innovations LLC","47.51265","-122.35302","10037 14th Ave SW","","Seattle","","206-241-5555","ken@ecotechinnovations.com","Dealer"
"Efficient Integrations","37.1198921","-93.4712709","566 E. Harrison St.","","Republic","United States","'+1 417-986-5560","mike@efficientintegrations.com","Dealer"
"Elemental Home Theater LLC","40.5545992","-80.038313","8102 Perry Highway","","Pittsburgh","","412-689-0897","dan@elementalht.com","Dealer"
"Elite American Fabrication LLC","41.4157864","-72.7378788","10 Meadow Lark Lane","","Northford","","203-747-4117","eliteamericanfabrication@gmail.com","Dealer"
"Elite Customs LLC","35.9589226","-86.8253246","131 Seaboard Lane","","Franklin","","615-628-8237","elitecustomtn@gmail.com","Dealer"
"Emerald Coast Customs","30.3961648","-86.4817401","200 Industrial Park Road","Suite A","Destin","United States","'+1 850-424-3821","eccdestin@gmail.com","Dealer"
"Endless Possibilities Auto LLC","41.8107988","-88.2734988","2740 Beverly Drive","Unit A","Aurora","United States","'+1 630-806-0456","redludesh00@gmail.com","Dealer"
"Endless Protective Solutions LLC","29.7906958","-95.5706441","1167 Brittmoore Rd","","Houston","","832-831-8790","info@endlessprotectivesolutions.com","Dealer"
"Energy Driven Systems Trading LLC","51.903054","-8.0837946","James Bourke","","","","158-537-4381","james@energydriven.me","Dealer"
"Engine 13 Overland, LLC","39.1211641","-84.5306928","2147 Central Ave.","","Cincinnati","","929-259-0187","zach@engine13.co","Dealer"
"Enriched Mobile Electronics","38.4700406","-122.7419059","1675 Piner Rd.","Suite B","Santa Rosa","United States","'+1 707-528-3351","ben@enrichedmobileelectronics.com","Dealer"
"Eurocharged Minneapolis(EC Minnesota LLC)","44.9326402","-93.3611428","6405 Cambridge Street","","Saint Louis Park","","952-977-9297","brent@eurochargedmpls.com","Dealer"
"Evaan Test Contact","41.8985919","-87.6605213","916 N Elizabeth St","","Chicago","United States","'+1 641-260-4030","","Dealer"
"Evolv Automotive Services LLC","40.7850922","-73.8463207","121-11 14th Road","","Rear College Point","","718-635-0487","shaun@evolvauto.com","Dealer"
"Exotic Solutions","26.4500819","-80.0885186","725 Southwest 16th Ave.","","Delray Beach","","561-306-6796","support@exoticsolutionsllc.com","Dealer"
"Extreme Car Audio LLC (Louisiana)","29.8930582","-90.1204917","6615 Westbank Expressway","","Marrero","United States","'+1 504-347-8889","extreme.car.audio@icloud.com; customerservice@extremecaraudiollc.com","Dealer"
"Foreign Technical Associates LLC","41.1708101","-73.8653836","179 North Highland Ave. Rear","","Ossining","","914-881-5006","am@foreigntech.de","Dealer"
"GE Motorsport LLC","40.6827786","-74.2077883","828 Newark Ave.","","Elizabeth","","973-991-5045","828gemotorsport@gmail.com","Dealer"
"GRD Creations LLC","40.7164547","-74.0706096","Gregory De La Rosa","","Communipaw Ave Jersey City","","201-360-3092","grdcreationsllc@gmail.com","Dealer"
"German Motors","40.8707612","-74.1608791","300 Colfax Ave.","Unit B","Clifton","United States","'+1 973-932-8531","germancustomworks@gmail.com","Dealer"
"Grit Overland (Paradigm Outdoors LLC)","45.5629212","-122.3258479","4035 S Grant Street","","Washougal","","360-910-4282","info@paradigmvan.com","Dealer"
"High Volume Car Stereo and Auto Sales","34.635084","-98.4226482","2706 NW Sheridan Rd","","Lawton","United States","'+1 580-355-9712","jacobk@highvolumecarstereo.com","Audio and visual equipment"
"","","","","","","","","","Dealer"
"Hollywood Sound Audio","41.5346768","-74.0855089","349 S Plank RD,","","Newburgh","United States","'+1 845-566-5156","hollywoodsoundsaudio@gmail.com","Dealer"
"Hoover Mercedes LLC","39.5237361","-104.7696262","18910 Longs Way","","Parker","","720-290-1364","hoovermercedes@gmail.com","Dealer"
"Houston Car Stereo","29.7331427","-95.5017477","2930 Hillcroft street","","Houston","United States","'+1 713-266-6225","sales@houstoncarstereo.com","Dealer"
"How We Adventure, LLC","44.050881","-121.2953454","693 SE Glenwood Dr","","Bend","","541-640-9886","kyle@howweadventure.com","Dealer"
"IDOTINT, LLC","32.2656364","-90.2037124","c/o UPS Hub","","E McDowell Rd Jackson","","601-352-0250","idotint@aol.com","Dealer"
"Innovative Autoworks, LLC","42.6825662","-88.9771774","3334 Royal Road","","Janesville","","608-960-8468","innovativeautoworksllc@gmail.com","Dealer"
"Innovative Car Audio","40.594792","-111.872695","8600 S 700 E","","Sandy","United States","'+1 801-566-7875","scott@innovativeaudio.com","Dealer"
"Innovative Wheels and Audio","33.1370289","-117.1342827","974 Ranchero Drive","Suite C","San Marcos","United States","'+1 760-535-3768","jeffsgotchrome@yahoo.com","Dealer"
"JC MotorSports LLC","39.5059313","-74.6140143","831 W. White Horse Pike","","Egg Harbor","","609-804-9200","jcmotorsports2005@gmail.com","Dealer"
"Jackson Tint and Sound","43.4212526","-110.7767647","4050 Pub Place","","Jackson","United States","'+1 307-733-2380","info@jacksontintandsound.com","Dealer"
"Jordan Painting LLC","40.8132404","-74.8733745","4 Blue Grass Ln","","Hackettstown","","","info@jordanpaintings.com","Dealer"
"Jurgen's Automotive Repair LLC","42.3761461","-83.4623604","307 Starkweather St","","Plymouth","United States","'+1 734-525-5117","jurgensautorepair@gmail.com","Dealer"
"Just One Electric, LLC","44.6473424","-93.2523815","20741 Ibex Ave.","","Lakeville","","952-215-5059","justoneelectric@outlook.com","Dealer"
"Kermatdi","39.6344433","-106.9149665","273 Spring Creek Rd","Unit A10","Gypsum","United States","'+1 970-459-0804","kale@kermatdi.com","Dealer"
"Krazy Soundz","33.9666958","-83.9288332","1502 Sir Knights Way","","Lawrenceville","United States","'+1 404-704-6631","krazysoundzatl@gmail.com","Dealer"
"Kustom Kar Audio Inc.","38.4245991","-122.7130639","1390B Santa Rosa Ave.","","Santa Rosa","","707-527-5000","kustomkaraudio@sbcglobal.net","Dealer"
"Lance's Audio Design","33.8347659","-117.8396346","2749 N. Canal St","","Orange","United States","'+1 714-476-3642","lances.auto.vlog@gmail.com","Dealer"
"Luminescent Detailing Co","42.2129866","-88.0678163","865 Telser Rd.","Unit 160","Lake Zurich","United States","'+1 847-902-7268","Lumidetailing@gmail.com","Dealer"
"Luxe CC LLC","33.9129961","-118.298175","1249 W. 132nd St.","","Gardena","","888-438-5893","jmayeda@lccsouthbay.com","Dealer"
"Luxe Designs","41.6970653","-85.8716277","21127 Protecta Dr.","","Elkhart","","574-229-5700","b2bellc.mish@gmail.com","Dealer"
"Luxury Group Holdings, LLC","25.9993985","-80.2042999","5830 Rodman Street","","Hollywood","United States","'+1 305-928-4589","accounting@lgmia.com","Dealer"
"M&D Transportation Services LLC","41.7183512","-87.8101033","7667 West 95th Street","Suite 304","Hickory Hills","United States","'+1 708-556-5608","","Dealer"
"M1 Imports llc","42.5267366","-83.1788935","4264 Edgeland Ave","","Royal Oak","","248-930-0842","m1importsauto@gmail.com","Dealer"
"MB Auto lounge/ GM Electronics","37.9706859","-122.0465302","1891 Market St.","","Concord","United States","'+1 925-674-1060","mralarmguy@gmail.com","Dealer"
"Medix Specialty Vechicles, LLC (Demers)","41.7285136","-85.977226","3008 Mobile Drive","","Elkhart","United States","'+1 574-266-0911","nveen@medixambulance.com","Dealer"
"Mercedes-Benz of Mishawaka","41.6962106","-86.1863127","4004 Grape Road","","Mishawaka","United States","'+1 574-800-2257","mmoskwinski@gurleyleep.com","Dealer"
"Mo Music","39.5261105","-119.743046","23 Snider Way","","Sparks","United States","'+1 775-331-6618","momusicaudio@gmail.com","Dealer"
"MoAuto LLC","41.8369232","-88.0833516","1709 Brentwood Lane","","Wheaton","United States","'+1 779-706-1233","mo_moauto@yahoo.com","Dealer"
"Mr. Kustom","41.9539866","-87.7208478","3708 W Irving Park Rd.","","Chicago","United States","'+1 773-583-3770, 773-230-4024 Cell (Rich)","rich@mrkustom.com","Dealer"
"Next Level Customs","35.8828089","-78.7436943","3108 Glen Royal Rd","Suite C","Raleigh","","919-957-0006","larry.a.parker@gmail.com","Dealer"
"No Limit Inc.","39.3532098","-76.5319564","6503 Belair Road","","Baltimore","United States","'+1 410-982-2121","parts@nolimitbmore.com","Dealer"
"Nomadic Supply Company","44.4783415","-73.2138502","150 Bank St.","","Burlington","United States","'+1 802-276-6623","hello@nomadicsupply.com","Dealer"
"OK Tire Auto Service","49.1897168","-97.9283104","255 Kimberly Rd","","Winkler","Canada","'+1 204-325-7993","Oktirewinkler@gmail.com","Dealer"
"OPM Distributions","33.885413","-117.5627059","400 Princeland Ct","Unit 2","Corona","United States","'+1 951-235-2382","Eliteonecustoms@gmail.com","Dealer"
"Off Highway Van","40.742821","-111.977894","1210 S 3600 W","","Salt Lake City","United States","'+1 801-382-7374","procurement@offhighwayvan.com","Dealer"
"Oil and Octane Automotive","30.439516","-90.275436","27066 LA 22","","Ponchatoula","United States","'+1 985-333-8787","eric@revolutionoilchange.com","Dealer"
"PAD Overland","45.721763","-122.8748662","50038 Columbia River Hwy","","Scappoose","United States","'+1 503-987-4002","info@padoverland.com; joel@padoverland.com","Dealer"
"Pitstop Lube and Tune","40.6824978","-73.7667326","125-01 Merrick Blvd","","Jamica","United States","'+1 631-926-2500","mikeslube1@gmail.com","Dealer"
"Precision Sound MA","42.268707","-71.175695","81 Bridge St.","","Dedham","United States","'+1 781-326-9551","precisionsound1@yahoo.com","Dealer"
"Ranier Audio","47.1931316","-122.4831856","7017 South Tacoma Way","","Tacoma","United States","'+1 253-844-8412","logancraver@gmail.com","Dealer"
"Ray's Electronics","41.9360814","-88.0968945","399 Wall Street","Suite F","Glendale Heights","United States","'+1 630-237-4333","rayselectronics@gmail.com","Dealer"
"Rossmonster Vans","40.1534988","-105.1174838","501 S Francis St.","","Longmont","United States","'+1 720-295-0623","andrew@rossmonster.com","Dealer"
"SAFE AND SOUND AUTO ACCESSORIES, LLC","40.1591793","-104.9871601","3600 Stagecoach Road North","Unit C","Longmont","United States","'+1 720-277-4142","safeandsoundauto@gmail.com","Dealer"
"SK Customs","33.9680758","-84.2562974","6366 Spalding Drive","","Peachtree Corners","","404-488-2061","skcustoms@hotmail.com","Dealer"
"SLK Store","37.762572","-121.9488232","135 Reflections Drive #18","","San Ramon","","310-751-4488","info@slkstore.com","Dealer"
"SNS Autosports","27.8361133","-82.6995726","7061 49th St N,","","Pinellas Park","","727-546-2700","srsnsautosports@gmail.com","Dealer"
"SP Audio","41.2176165","-112.0151834","1501 W. 2650","Suite #103","Ogden","United States","'+1 801-648-2837","s.p.audio85@gmail.com","Dealer"
"SRQ Customs","27.2710902","-82.4799967","5687 Mcintosh Road","","Sarasota","United States","'+1 941-923-6200","ryan@srqcustoms.com","Dealer"
"SRS Components, LLC","41.6844254","-86.2362742","706 N Francis","","South Bend","","574-344-7743","bsullivan6@hotmail.com","Dealer"
"SS Motors","47.7896346","-122.3384384","23029 Highway 99","","Edmonds","","206-288-3800","jangala00@hotmail.com","Dealer"
"STL Auto Enhancements","38.7056114","-90.4080956","11252 Midland Blvd","","Louis","","314-455-3259","info@stlautoenhancments.com","Dealer"
"Sacom","46.251984","15.1650282","Alijosa Zalec","","","","864-133-5279","info@blu-eye-adria.com","Dealer"
"Safe & Sound","61.1534541","-149.8647812","7402 Old Seward","","Anchorage","","907-522-2353","safeandsound002@aol.com","Dealer"
"Safe & Sound (PA)","40.6509872","-80.0810364","16055 Perry Hwy","","A Wexford","","412-364-5666","safeandsoundpgh@yahoo.com","Dealer"
"Safe & Sound Installation Center","40.6745156","-73.9099183","1801 Eastern Parkway","","Brooklyn","","718-342-3058","safeandsound2@verizon.net","Dealer"
"Safe & Sound, LLC","37.456459","-76.8414119","18421 New Kent Hwy","","Barhamsville","","757-566-2233","chuck@safeandsoundva.com","Dealer"
"Safe System Inc","41.4183859","-81.7232577","5401 Brook Park Rd.","","Parma","","216-661-1166","carol723beck@yahoo.com","Dealer"
"Safe and Sound (MA)","42.1599262","-72.5540243","675 Fuller Road","","Chicopee","","413-594-6460","aaron@safeandsoundhq.com","Dealer"
"Safe and Sound Mobile Electronics","38.7803045","-77.5113973","8104 Sudley Road","","Manassas","","703-368-1564","mark@mysafeandsound.com","Dealer"
"Saint Nordic Custom Autoworks","45.1084079","-93.2367689","1313 Osborne Road NE","","Spring Lake Park","United States","'+1 763-260-1491","troy@saintnordic.com","Dealer"
"Sal's Complete Auto","40.5470312","-74.1938222","48 Everton Ave.","","Staten Island","","718-414-0120","salscompleteauto@aol.com","Dealer"
"Samm Sound NJ","40.8551918","-74.3080148","1103 Bloomfield Ave.","","West Caldwell","","973-575-8910","ald@sammsound.com","Dealer"
"San Diego Car Stereo","32.8186171","-117.1554961","4220 Convoy Street","","San Diego","","858-569-0777","sdcarstereo@gmail.com","Dealer"
"San Diego Dealer Services","32.9198162","-117.1314559","10969 Polaris Dr","","San Diego","","619-247-6896","jasonagustin@gmail.com","Dealer"
"Sandy Vans LLC","32.8935829","-117.1530502","9393 Trade Pl","","San Diego","United States","'+1 619-812-1903","contact@sandyvans.com","Dealer"
"Santa Barbara Auto Stereo","34.4406855","-119.7340356","3234 State St.","","Santa Barbara","","805-682-2505","sbastereo@aol.com","Dealer"
"Santa Clarita Auto Sound, Inc.","34.4109172","-118.5410158","25845 Railroad Ave.","Unit 10","Santa Clarita","United States","'+1 661-286-1100","scas@att.net","Dealer"
"Santa Fe Auto Sound (Arvidson Auto Sound)","38.979298","-94.6767378","8201 Lowell Ave.","","Overland Park","United States","'+1 913-649-8500","scotth@santafeautosound.com","Dealer"
"Santa Monica Car Sound","34.0284209","-118.4807695","1915 Santa Monica Blvd","","Santa Monica","","310-458-5555","santamonicacarsound@gmail.com","Dealer"
"Santa Rosa Cartunes","38.4155439","-122.7130639","2450 Santa Rosa Ave.","","Santa Rosa","","707-546-8585","tunesmgr@sonic.net","Dealer"
"Savage Concepts","29.831225","-95.5105981","4125 Hollister Rd","Suite K","Houston","","832-786-1801","jsalvagio@savageconcepts.net","Dealer"
"Sears Imported Autos","44.9723014","-93.4496319","13500 Wayzata Blvd.","","Minnetonka","","952-512-6547","robert.legrand@searsimports.com","Dealer"
"Seattle Sounds on Wheels","47.4656614","-122.3342746","15315 1st Ave S","","Seattle","","206-248-3000","seattlesow@gmail.com","Dealer"
"Secured Car Brokers","40.6620696","-111.8866683","Joe Watson","","Salt Lake City","","801-265-9058","joe@securedcarbrokers.com","Dealer"
"Security Sound (Shop to Talk)","42.7773536","-71.089866","68 Lafayette Square","","Haverhill","","978-521-8000","securitysound@hotmail.com","Dealer"
"Security and Sound Systems","21.2954978","-157.8270712","2131 South Beretania St.","","Honolulu","","808-947-8799","kizuka@me.com","Dealer"
"Select Technologies","42.8857536","-77.2665614","235 Saltonstall St.","","Canandaigua","","585-394-6400","info@selecttechautomotive.com","Dealer"
"Serenity Vans, LLC","36.9252462","-87.5475058","3905 Witty Lane","","Hopkinsville","","270-889-4602","serenityvans1@gmail.com","Dealer"
"Sexton & Williams Inc.","32.3822929","-86.2138848","5399 Atlanta Highway","","Montgomery","","334-277-2083","","Dealer"
"Shedlock Car Care","40.6307584","-74.5003056","121 Mount Bethel Road","","Warren","","908-580-1222","shedlockcc@aol.com","Dealer"
"Shelby's Car Stereo and Alarm","33.8269687","-118.1679457","3801 Cherry Ave.","","Long Beach","","562-426-7366","shelbyscarstereo@verizon.net","Dealer"
"Shirly Street Auto and Collision","26.2180373","-81.639901","626 17th Street SW","","Naples","","239-404-3319","eeworkbench@yahoo.com","Dealer"
"Shockwave Customs","41.5061393","-87.848146","9565 Lincoln Hwy","","Frankfort","","815-469-9141","acshockwave@yahoo.com","Dealer"
"Shore Customs","40.2260384","-74.038399","1213 State Route 35 North","","Ocean","","732-988-5600","scott@shorecustoms.com","Dealer"
"Showroom Automotive","40.9318589","-73.899008","2637 E. Atlantic Blvd.","","Yonkers","","914-965-6900","showroom@mercando.net","Dealer"
"Showtime Audio","41.9614692","-87.7307795","4428 N. Elston Ave.","","Chicago","","","","Dealer"
"Siebring Electric & Lock","43.3412257","-96.0019946","301 S. Main St.","","George","","712-475-3747","gary@siebring.com","Dealer"
"Sierra Nevada Electronic Monitoring","40.9527166","-117.7427656","4600 Grass Valley Road","","Winnemucca","","775-375-8456","sierramonitoring@mail.net","Dealer"
"Sights And Sounds","41.4419947","-71.5025305","190 High St.","","Wakefield","","401-783-1660","sightsandsoundsri@gmail.com","Dealer"
"Sights Sounds & Speed","38.3760404","-81.7801974","53 Underwood Ave","","St Albans","","304-546-2161","info@sightssoundsspeed.com","Dealer"
"Signature Audio","33.6299597","-111.9193857","7432 E. Tierra Buena Lane","","Scottsdale","","480-922-8180","dhill@signatureaudiousa.com","Dealer"
"Signature Automotive Accessories Inc","41.7135444","-71.5079555","Tim Perpall","","Providence Street West Warwick","","401-615-3053","tmperpall@yahoo.com","Dealer"
"Signature Line Motorsports","41.7098151","-87.7978698","10005 S. Harlem Ave.","","Chicago Ridge","","708-800-7585","signaturelinemotorsports@protonmail.com","Dealer"
"Signature Sound Inc","35.1015118","-78.9588075","5649 Bragg Blvd","","Fayetteville","","910-491-7913","signaturesound910@gmail.com","Dealer"
"Silver Star Auto Haus","35.1821095","-106.5875374","5111 Wilshire Ave. NE","","Albuquerque","","505-881-4855","ssah@silverstarabq.com","Dealer"
"Simons Stereo","34.1557283","-118.3694218","4701 Lankershim Blvd","","North Hollywood","","818-762-5100","simonsstereo@hotmail.com","Dealer"
"Simonson Foreign Car Service","26.0056167","-80.14939","720 S. Dixie Highway","","Hollywood","","954-923-0003","simonsonforeignrepair@gmail.com","Dealer"
"Simply Auto Sound","40.564596","-122.3479053","1270 Hartnell Ave.","Suite B","Redding","","530-605-3130","simplyautosound@gmail.com","Dealer"
"Sin City Overland LLC","36.264853","-115.1701058","5734 Bear Springs St.","","North Las Vegas","","702-580-2349","shaun@sincityoverland.com","Dealer"
"Sinewave Car Stereo","42.3381639","-88.0259142","888 E Belvidere Rd.","","Grayslake","","224-622-2290","sinewavecarstereo@gmail.com","Dealer"
"Site On Sound Inc.","46.8755704","-96.803855","1443 Main Ave.","","Fargo","","701-280-2272","butch@siteonsound.net","Dealer"
"Site Seven Campers","35.0171587","-85.2762987","2311 E. 23rd St.","","Chattanooga","","423-648-2267","justin@sitesevencampers.com","Dealer"
"Skynet Tracking Inc.","40.7188853","-73.811685","150-38 Union Turnpike","","PH G Flushing","","917-299-6032","zach@skynettracking.com","Dealer"
"Sleek Tinting & Performance LLC","39.4720121","-75.0452345","1016 S. Delsea Drive","Unit B","Vineland","","856-285-9626","sleektnp@yahoo.com","Dealer"
"Smart Automotive Electronics","42.358761","-88.1153727","578 N. Fox Trail","","Round Lake","","708-997-0000","smartautomotiveelectronics@gmail.com","Dealer"
"Snap A Dent (OneStop Marketing Solutions)","25.7948972","-80.330493","2254 NW 82nd Ave","","Doral","","305-244-1500","accounting@snapadent.com","Dealer"
"Snow's Auto","47.7121302","-117.4107866","5924 N. Division St.","","Spokane","","509-489-2200","office@snowsauto.com","Dealer"
"Soft N' Cushy Auto Upholstery & Auto Acce","42.7831827","-73.9066571","1731 State Street","","Schenectady","","518-372-3807","pavel@softncushyauto.com","Dealer"
"Solar Eclipse Inc.","47.7155225","-116.9017919","3440 E Mullan Ave.","","Post Falls","","208-773-4313","sales@solareclipseinc.com","Dealer"
"Solar Illusions","39.7351473","-86.3094389","8350 W. Washington St.","","Indianapolis","","317-300-4288","solarillusions317@gmail.com","Dealer"
"Solar Visions","41.5205387","-90.5866012","916 W. River Dr.","","Davenport","","563-322-2616","solarvisionqc@aol.com","Dealer"
"Sommer Sound Systems","30.18106","-85.7126201","4018 West Highway 98","","Panama City","","850-215-6664","info@sommersoundsystems.com","Dealer"
"Sonic Audio and Auto Accessories","45.3798556","-122.8144729","19450 SW Cipole Rd","Unit 101","Tualatin","","503-708-7840","info@sonic-audio.com","Dealer"
"Sonic Sound","38.8696129","-77.1002873","32 South Glebe Rd.","","Arlington","","703-820-0085","sonicsound4615@verizon.net","Dealer"
"Sonic Sounds Inc.","41.3899811","-75.6955385","510 N. Main St.","","Taylor","","570-344-2305","sonicsounds.cr@gmail.com","Dealer"
"Sound Advice (Hattiesburg)","31.3179308","-89.4028192","6372 US Hwy 98 West","","Hattiesburg","","601-261-9988","soundadvicems@yahoo.com","Dealer"
"Sound Advice Audio Video","48.4313743","-123.362339","1930 Blanshard St","","Victoria","Canada","'+1 250-384-2426","joereda@telus.net","Dealer"
"Sound Auto","40.2081209","-74.7137546","131 Turnbull Ave","","Hamilton","","609-587-5555","soundautogroup@gmail.com","Dealer"
"Sound Automotive Group","34.15843","-118.5384756","4735 Amigo Ave","","Tarzana","","","kevin@soundautomotivegroup.com","Dealer"
"Sound Check Systems, Inc.","32.8342123","-117.1543842","7719 Convoy Ct..","","San Diego","","858-560-5455","baron@dslextreme.com; chaz@soundcheckcaraudio.com","Dealer"
"Sound Concept Nanuet","41.109716","-74.048891","264 E RTE 59","","Nanuet","United States","'+1 845-623-2362","bruce@soundconcept.com","Dealer"
"Sound Connection","46.3989416","-94.27764","5926 Barbeau Rd","","Brainerd","","218-825-1916","john@soundconnectioninc.com","Dealer"
"Sound Connection Inc","44.9622202","-92.6825871","592 Outpost Circle","Suite A","Hudson","","534-544-5175","hudson@soundconnectioninc.com; jjc@soundconnectioninc.com","Dealer"
"Sound Decision Inc./SDS","41.7143601","-88.2943743","Donnie Bartalone","","Kirkland Circle Unit F Oswego","","630-966-9696","","Dealer"
"Sound Decisions","42.719866","-87.8763393","1144 S. Airline Road","","Mount Pleasant","","262-633-8300","brightpinkmailbox@gmail.com","Dealer"
"Sound Depot","43.6381597","-116.2595158","4688 W Chinden Blvd","","Boise","","208-378-9711","sounddepotboise@gmail.com","Dealer"
"Sound Depot LLC","37.9210352","-91.7798058","1329 S. Bishop Ave.","","Rolla","","573-364-2333","snddpt@gmail.com","Dealer"
"Sound Depot and Performance Inc","29.6701775","-82.3230928","1931 North Main Street","","Gainesville","","352-374-7700","arap.sdp@gmail.com","Dealer"
"Sound Design","41.6982488","-88.2409734","10104 S. Mandel St.","","Plainfield","","630-420-9898","al@soundesigninc.com","Dealer"
"Sound Designs","42.214092","-121.7447311","3581 Shasta Way","","Klamath Falls","","541-882-2222","rachelmatson1@yahoo.com","Dealer"
"Sound Dimensions","40.8217543","-73.506356","142 Underhill Blvd.","","Syosset","","516-364-5599","louis@sounddim.com","Dealer"
"Sound Evolution, LLC","29.7365908","-95.612121","12836 Westheimer Road","","Houston","","281-679-1655","soundevolutionhtx@gmail.com","Dealer"
"Sound FX (Deleware)","38.7490774","-75.1683278","17665 Coastal Highway","","Lewes","","302-644-8110","brian@sound-fx.net","Dealer"
"Sound FX (RI)","41.8067047","-71.3410983","40 Highland Ave.","","East Providence","","401-431-2100","nick@soundfxonline.com","Dealer"
"Sound FX (West Warwick)","41.6866398","-71.5013748","339 Quaker Lane","","West Warwick","","401-826-2626","mark@soundfxonline.com","Dealer"
"Sound FX Autosound LTD.","43.6686403","-79.4393278","1172 Dupont St.","","Toronto","Canada","'+1 416-537-6863","soundfxautosound@bellnet.ca","Dealer"
"Sound FX of Central Valley","41.3126646","-74.1572324","63 North Main Street","","Harriman","","845-928-9099","soundfxny@aol.com","Dealer"
"Sound Factory","38.2452093","-85.742534","619 E. Broadway","","Louisville","","502-589-7441","techs@soundfactory.net","Dealer"
"Sound In Motion","42.3668832","-71.1560776","120 Elm Street","Rear Building","Watertown","United States","'+1 617-787-7744","simhelp@gmail.com","Dealer"
"Sound Innovations (CA)","37.6092596","-122.0811072","29400 Kohoutek Way","#100","Union City","","510-471-9062","ernie@soundinnovations.com","Dealer"
"Sound Innovations (KS)","38.9726895","-95.2529772","1501a W 6th","","Lawrence","","785-856-2604","pat@silawrence.com","Dealer"
"Sound Investment","39.9552343","-82.87994","4423 East Main St","","Columbus","","614-235-9500","soundinvestmentcol@hotmail.com","Dealer"
"Sound MD Inc.","45.7836197","-108.579534","2500 Grand Ave.","","Ste Q Billings","","406-698-4073","brandon@soundmd.com","Dealer"
"Sound Of Tri State","39.894164","-75.3181583","1500 Macdade Blvd","","Folsom","","610-328-0301","mike@soundoftristate.com","Dealer"
"Sound On Wheels (CJ Cycle)","34.9296504","-80.9943867","515 Anderson Road S.","","Rock Hill","","803-329-3400","rick@soundonwheels.net","Dealer"
"Sound On Wheels NYC","41.7229979","-73.8430412","14 Pleasant View Rd.","","Poughkeepsie","","845-471-9880","bprich@verizon.net","Dealer"
"Sound Performance Inc.","38.9660554","-92.3370606","1310 Indiana Ave.","","Columbia","","573-874-9203","soundperformanceonline@gmail.com","Dealer"
"Sound Pro Inc.","33.6589405","-84.0219885","1026 Iris Dr. SW","","Conyers","","770-922-2233","soundproconyers@gmal.com","Dealer"
"Sound Sensations","33.9444963","-84.5161922","329 Freys Gin Rd.","","Marietta","","770-429-1600","soundsen@bellsouth.net","Dealer"
"Sound Shift Audio","41.2305894","-73.0302319","260 Old Gate Lane","","Milford","","203-800-1462","bioniclabsllc@gmail.com","Dealer"
"Sound Solution and Security","48.845747","-95.769226","105 5th Ave. SW","","Roseau","","218-469-5028","soundss.16@gmail.com","Dealer"
"Sound Solutions","30.3784258","-89.0934483","2315 25th Ave.","","Gulfport","","228-313-9993","sndsoul@aol.com","Dealer"
"Sound Solutions Inc","39.408315","-76.5135056","10015 Harford Rd.","","Parkville","","410-882-5135","orderdesk@soundsolutionsmd.com","Dealer"
"Sound Solutions of Greensboro","36.0541266","-79.8905267","1621 Stanley Road","","Greensboro","","336-855-0520","soundsolution697@bellsouth.net","Dealer"
"Sound Station & Security","35.8640516","-78.7152469","7105 Glenwood Ave.","","Raleigh","United States","'+1 919-758-8404","soundss2@aol.com","Dealer"
"Sound Trax","40.8580529","-73.1031086","2580 Middle Country Road","","Centereach","","631-588-8435","dawn@lisoundtrax.com","Dealer"
"Sound Warehouse","40.7112233","-111.8878126","2763 South State Street","","Salt Lake City","","801-485-0070","matt@soundwarehouseutah.com","Dealer"
"Sound Wave Customs","36.8213012","-76.0658984","2700 Avenger Dr","#111","Virginia Beach","","757-648-8888","soundwavesvb@gmail.com","Dealer"
"Sound Waves (Memphis)","35.2041485","-89.8100467","7585 Stage Rd.","","Memphis","United States","'+1 901-377-1001","buddy@soundwavesmemphis.com","Dealer"
"Sound Waves (NJ)","40.8848269","-74.2844958","472 US Hwy 46","","Fairfield","","973-334-9283","sam@sound-waves.com","Dealer"
"Sound Waves Automobile Sound & Security","40.8717333","-73.3228611","323 Larkfield Road","","East Northport","","631-368-8853","soundwavesss@aol.com","Dealer"
"Sound Waves Inc.","45.2189145","-93.4271093","6304 Highway 10 NW","","Ramsey","","763-783-5797","soundwavesinc@yahoo.com","Dealer"
"Sound Works (Norfolk NE)","42.0413905","-97.4121554","904 Riverside Blvd C,","","Norfolk","","402-379-2666","jonathon@teamsoundworks.com","Dealer"
"Sound Works Inc. MA","42.1459592","-71.1377946","2 Feldman Way","","Canton","","774-297-1667","astjames411@gmail.com","Dealer"
"Sound Xpression","33.3828773","-111.826117","240 E Coury Ave.","Suite 131","Mesa","","480-558-7031","info@soundxpression.com","Dealer"
"Sound and Alarm (Motor Music)","37.6948777","-122.4652559","7070 Mission St.","","Daly City","","650-991-4448","alm551@yahoo.com","Dealer"
"Sound of Tri State (2)","39.7331514","-75.6408676","3721 Kirkwood Hwy","","Wilmington","","302-999-9849","marlo@soundoftristate.com","Dealer"
"Sound of Tri State (3)","39.1705496","-75.5192621","280 N Dupont Hwy.","","Dover","","302-736-1206","bobby.g@soundoftristate.com","Dealer"
"Sound of Tri State (Main)","39.8212203","-75.5445921","4737 Concord Pike","","Behind Sears Wilmington","","302-792-9004","marlo@soundoftristate.com","Dealer"
"Sound on Wheels (WI)","42.5884282","-87.849381","3308 52nd Street","","Kenosha","","262-656-1899","soundonwheels1992@gmail.com","Dealer"
"SoundChamber Car Audio","40.0276157","-82.9592565","2925 Westerville Rd,","","Columbus","","614-586-1105","soundchamber@breezelinebiz.net","Dealer"
"SoundOff Signal","42.8429024","-85.865173","PO Box 206","","Central Parkway Hudsonville","","800-338-7337","bmiller@soundoffsignal.com; jpratt@soundoffsignal.com","Dealer"
"SoundShapers, Inc.","44.7664305","-68.7711653","26A Airport Road","","Brewer","","207-989-1889","andy@soundshapers.net","Dealer"
"SoundWave Mobile Electronics","37.5081317","-122.2513245","860 Bransten Rd","","San Carlos","","650-593-7676","mark@soundwaveme.com","Dealer"
"SoundWaves Car Stereo","40.8036128","-72.8563029","1159 Montauk Hwy","","Mastic","","631-281-1300","soundwavesaudio2@gmail.com","Dealer"
"Soundcrafters","29.1705713","-81.0007826","2400  55 South Ridgewood Avenue","","South Daytona","","386-761-8800","accounting@soundcraftersdb.com; mgr@soundcraftersdb.com","Dealer"
"Soundelux Car Audio","32.5953685","-117.0801076","2490 Main St.","Suite 1","Suite I Chula Vista","","619-575-7558","sdcustom@hotmail.com","Dealer"
"Soundjamz Audio And Truck Accessories","29.5638514","-95.2919767","4509 Cherry St.","","Pearland","","281-485-0000","sondjamzonestop@gmail.com","Dealer"
"Sounds By Secrest","40.5685464","-105.1070453","Justin Secrest","","West Lake Street Fort Collins","","970-999-2228","soundsbysecrest@gmail.com","Dealer"
"Sounds Fast","44.0680137","-121.3047317","142 NE Revere Ave.","","Bend","","541-312-4332","colin@soundsfast.net","Dealer"
"Sounds Good to Me","33.4078958","-111.954445","1010 W Broadway Rd","Suite 2","Tempe","","480-968-8543","acegracey@aol.com","Dealer"
"Sounds Incredible Mobile","41.4392441","-73.4047161","72 Grays Bridge Rd.","","Brookfield","United States","'+1 203-778-3330","info@soundsincrediblemobile.com","Dealer"
"Sounds So Good Car Audio LLC.","39.7390957","-77.5380635","10772 Buchanan trail east","","waynesboro","United States","'+1 717-762-6865","tnrbryan@gmail.com","Dealer"
"Soundsation","40.5833957","-74.1522761","209 Lewiston St","","Staten Island","","718-637-3410","ultrasubs@gmail.com","Dealer"
"Soundsations","34.4400287","-118.5914696","25155 Stanford Ave.","","Valencia","","661-255-6010","soundsations@sbcglobal.net","Dealer"
"Soundsgood Auto","49.2718197","-123.0231484","1420 Boundary Rd.","","Burnaby","Canada","'+1 604-676-8100","ruben@soundsgoodauto.com","Dealer"
"Soundtronics","34.24956","-77.861137","5715 Market St.","","Wilmington","","910-395-6004","beerman28411@gmail.com","Dealer"
"Soundwave Audio","27.1763195","-80.2313657","Ken Lundlow","","SE Dixie Hwy Stuart","","772-286-7771","","Dealer"
"Soundwaves","27.9527247","-82.3760908","7002 E Adamo Dr.","","Tampa","","813-849-1104","peter@soundwavesoftampa.com","Dealer"
"Soundwaves (MI)","42.627906","-82.9184929","20552 Hall Road","","Clinton Township","","586-738-6808","soundwavesmi@gmail.com","Dealer"
"Soundworks Car Audio","61.1894351","-149.8984586","3404 Arctic Blvd.","","Anchorage","","907-569-1212","Jon@soundworksak.com","Dealer"
"Soundworks LLC","39.1013087","-76.6277868","8424 Veterans Hwy","Suite 1","Millersville","","410-987-1366","sales@soundworksmd.com","Dealer"
"Soundz Good Inc","41.944639","-87.687794","3447 N Western Ave","","Chicago","","773-871-8600","soundzgd@gmail.com","Dealer"
"Soundz Plus Inc.","41.8096653","-88.2113582","2108 Ferry Road","#105","Naperville","","630-393-3333","brian@soundzplus.com","Dealer"
"South Bay Autohaus","33.9021545","-118.3636731","4875 W Rosecrans","","Hawthorne","","310-355-0922","qaisnoory@aol.com","Dealer"
"Southeast Power Systems Inc.","28.589547","-81.414075","4220 North Orange Blossom Trail","","Orlando","","800-733-6101","sedmonds@se-power.com, spalmer@se-power.com","Dealer"
"Southern Automotive Accessories","35.1747972","-89.8888983","5232 Pleasantview Road","","Memphis","","901-372-0826","chris@southernautoinc.com","Dealer"
"Southern Traffic Services, Inc","30.377913","-87.099412","Sheila Knowles","","Westfield Road Gulf Breeze","","850-934-5732","mmorgan@southerntrafficservices.com","Dealer"
"Southtowne Mitsubishi (Axio Auto)","40.5565103","-111.8919157","10736 S State St","","Sandy","","801-441-9172","adam@utahmits.com","Dealer"
"Space8ge Creations","39.1697378","-77.1563379","7638 Airpark Road","Unit B","Gaithersburg","United States","'+1 240-330-6553","support@space8ge.com","Dealer"
"Spanking Clean Auto Sound & Security","41.1426425","-73.4092563","151 E Rocks Rd","","Norwalk","","203-223-2663","scadss@optonline.net","Dealer"
"Spark Videotrucks","30.5161378","-87.8840073","925 Nichols Ave 36532","","Fairhope","United States","'+1 251-272-0224","bob@sparkvideotrucks.com","Dealer"
"Spark's Garage","43.8041334","-120.5542012","925 Nichols Ave","","","","503-877-2757","thatguy@sparksgarage.com","Dealer"
"Sparta Glen Auto Tech","41.0228819","-74.6287891","211 Woodport Road","","Sparta","","973-729-0041","deenice316@gmail.com","Dealer"
"Speaker City / Rollin' Thunder","37.5051268","-77.4792495","246 E. Belt Blvd","","Richmond","","804-232-7867","afranklin19@gmail.com","Dealer"
"Speaker Works Inc","33.8047854","-117.8676352","1030 N Main St","Suite A","Orange","United States","'+1 714-997-9880","sales@speakerworksinc.com","Dealer"
"Speakerbox LLC","34.7401924","-86.5961151","1803 University Drive NW","","Suite C Huntsville","","256-325-4466","speakerboxcaraudio@gmail.com","Dealer"
"Specialized Car Audio","41.9186912","-88.0704043","428 E. Fullerton","","Glendale Heights","","630-479-9064","mike@startmycar.net","Dealer"
"Specialty Exotics","32.7936411","-96.8034607","100 Cresent Court","","Dallas","","469-389-1329","sales@specialexotics.com","Dealer"
"Speed Of Sound Technologies","41.2408005","-73.0259306","55 Woodmont Rd.","","Milford","","203-954-0066","speedsoundtech@yahoo.com","Dealer"
"SpeedEFX","39.5870196","-104.8127677","15131 E. Fremont Drive Suite 104","","Centennial","","720-924-2586","sales@speedefx.com","Dealer"
"Speedriven","42.2145854","-88.3132916","150 Virginia Rd.","Unit 4","Crystal Lake","","847-485-8126","sales@speedriven.com","Dealer"
"Speedworld (House of Speed Inc.)","40.6562051","-73.6142271","598 Sunrise Hwy","","Baldwin","","516-771-2525","speedworldli@aol.com","Dealer"
"Speedworld Inc.","40.7379985","-73.8858262","77-20 Queens Blvd.","","Elmhurst","","718-651-6541","7720sound@gmail.com","Dealer"
"Spokane Audio Video Experts","47.6677705","-117.1643804","Jamison Schuh","","Greenacres","","509-954-2976","jamie@spokaneaudio.com","Dealer"
"Sportsmobile Texas Inc","30.3771637","-97.7132463","9805 Gray Blvd.","","Austin","","512-835-4409","z.smith@sportsmobile.com","Dealer"
"Spray City Collision","40.633415","-74.126657","1316 Castleton Ave.","","Staten Island","","718-273-9500","spraycitynyc@gmail.com","Dealer"
"Spraytech, LLC","42.3913131","-88.1812946","89 S. US Highway 12","","Fox Lake","","847-973-9432","contact@spraytech-wi.com","Dealer"
"Sprinter Engineering LLC","40.85299","-111.9155461","570 Taylor Way","Unit 6","North Salt Lake","United States","'+1 385-212-1016","allan@sprinterengineering.com","Dealer"
"Sprinter Gurus / Solomotorsports","33.922252","-84.2135935","6000 Jimmy Carter Boulevard","","NORCROSS","United States","'+1 404-910-5211","keenan@solomotorsports.net","Dealer"
"Sprinter Parts and Service Store Inc.","45.3794813","-122.7680668","19460 SW 89th Ave.","","Tualatin","","503-427-2270","arthur@sprinterstore.com","Dealer"
"Squeaky Klean Auto Detailing","40.7816444","-73.1110102","1529 Lakeland Ave.","","Bohemia","","631-666-8898","squeakyg@optonline.net","Dealer"
"Star Auto Service","39.3981834","-76.6030762","Bob Hafenmair","","York Road Towson","","410-339-7827","starautoservice@verizon.net","Dealer"
"Star City 12Volt","37.2338493","-80.0066373","3804 Brambleton Ave","","Roanoke","","540-986-5429","starcity12volt@gmail.com","Dealer"
"Star European Imports","41.6563096","-88.4345576","9316 US Route 34","Suite 1","Yorkville","","630-533-6555","surness27@gmail.com","Dealer"
"Star Mobile Electronics","40.8760888","-73.0781469","127 Avondale Dr.","","Centereach","","516-317-6600","ime6600@gmail.com","Dealer"
"Stardust Hawaii (EBikes Hawaii)","20.8807679","-156.6797459","991 Limahana Place","","Lahaina","","808-419-8669","info@ebikes-hawaii.com","Dealer"
"Static Cellular and Audio","34.2005765","-118.6055898","7146 Topanga Canyon Blvd","","Canoga Park","","818-888-8079","webalarms@gmail.com","Dealer"
"Status Auto Gallery","33.502471","-112.3919521","15477 W Meadowbrook Ave","","Goodyear","","623-500-7300","statusautogallery@gmail.com","Dealer"
"Status Motoring","40.8572612","-74.050059","480 US Highway 46","","South Hackensack","","201-313-0606","statusmotoring@gmail.com","Dealer"
"Stealth Power","30.2266459","-97.6803126","1201 Old Bastrop Hwy","","Austin","United States","'+1 512-306-0088","thill@stealth-power.com; rachaelh@stealth-power.com","Dealer"
"Stereo Blvd","33.7413396","-117.9197292","417 S Harbor Blvd.","","Santa Ana","","714-531-1250","stereoblvd@gmail.com","Dealer"
"Stereo City","34.0901437","-117.2944624","596 South E. St.","","San Bernardino","","909-888-5513","stereocity25@gmail.com","Dealer"
"Stereo Depot","32.8074605","-116.9422745","1149 Broadway","","El Cajon","","619-873-2210","stereodepot@gmail.com","Dealer"
"Stereo Depot (Main - San Diego)","32.7654293","-117.0598055","6445 El Cajon Blvd","","San Diego","","619-286-1234","stereodepot@gmail.com","Dealer"
"Stereo Innovations","35.4971774","-82.9752977","1062 N Main St","","Waynesville","United States","'+1 828-452-3474","nccorvette@bellsouth.net","Dealer"
"Stereo Installs","41.6603084","-81.3742541","7471 Tyler Blvd","","Unit B Mentor","","440-525-2001","bryan@stereoinstalls.com","Dealer"
"Stereo Junction","34.2024309","-92.0320259","2809 W. 28th Ave.","","Pine Bluff","","870-535-7900","tommy@stereojunction.com","Dealer"
"Stereo King","45.4349535","-122.5797733","12119 SE 82nd","","Portland","","503-653-8088","randyd@stereoking.com","Dealer"
"Stereo Maxx","37.6786702","-122.0924878","21715 Mission Blvd","","Hayward","United States","'+1 510-581-2636","stereomaxx@hotmail.com","Dealer"
"Stereo One (TN)","35.1528754","-89.7959372","1003 N Germantown Pkwy","","Cordova","","901-756-5633","eldridgehenry2@gmail.com","Dealer"
"Stereo Solutions (Redding)","40.5732332","-122.3576209","2345 Hilltop Drive","","Redding","","530-224-1400","stereosolutions@icloud.com","Dealer"
"Stereo Specialists","41.6784571","-86.196844","259 N. Logan Street","","South Bend","","574-232-1442","stereospecialists@att.net","Dealer"
"Stereo Steve's","40.3164156","-111.7044382","1047 N State Street","","Orem","","801-709-1285","stereostevesemail@gmail.com","Dealer"
"Stereo Upgrade Inc.","40.6864243","-73.8540129","8720 Atlantic Ave.","","Ozone Park","","718-641-6000","stereoupgrade@yahoo.com","Dealer"
"Stereo Warehouse","47.729542","-122.3445131","13728 Aurorea Ave N","","Seattle","","206-365-5622","stereowarehouse1@aol.com","Dealer"
"Stereo Workz","36.3033005","-119.7810776","327 N. Lemoore Ave.","","Lemoore","","559-924-2029","stereoworkzpedro@att.net","Dealer"
"Stereo and Video Center","32.2866569","-95.304565","5711 S. Broadway Ave.","","Tyler","","903-561-7455","tim@stereovideocenter.com","Dealer"
"Sterling Luxury Coaches","39.1354243","-94.5744719","1420 Gentry Street","","North Kansas City","","816-569-6784","Accounting@SterlingLuxury.com","Dealer"
"Steve's Security & Stereo","42.7638049","-71.2136367","215 So. Broadway Street","","Salem","","978-689-9495","stevessecurityonline@gmail.com","Dealer"
"Steveos Audio and Tint","39.1983992","-94.5148824","5413 Ne 57th Terr","","Kansas City","","816-772-2071","steveosaudioandtint@gmail.com","Dealer"
"Stewart Design LLC","39.813308","-86.05934","6301 East 32nd Court","","Suite A Indianapolis","","317-353-9558","stewartdesigh1961@gmail.com","Dealer"
"Stoops Freightliner (Truck Country)","41.0679778","-84.9825749","12247 Declaration Drive","","New Haven","","800-456-8782","jerryrinehold@truckcountry.com","Dealer"
"Storyteller Overland","33.4478589","-86.8574511","428 Industrial Ln","","Birmingham","","205-567-8080","lee@storytelleroverland.com; ap@storytelleroverland.com","Dealer"
"Straight Drop Audio and Alarms","33.7931776","-84.6649934","10711 Veterans Memorial Hwy","","Lithia Springs","","404-552-1214","straightdropaudio@gmail.com","Dealer"
"Streamline Audio","44.8461587","-93.4137781","8754 Black Maple Dr.","","Eden Prairie","","952-944-3262","andre@streamlineaudiomn.com","Dealer"
"Streamline Audio (Vancouver WA)","45.6872385","-122.5521635","8901 NE 117TH Ave.","","Bldg C Vancouver","","360-944-5055","jim@streamline-audio.com","Dealer"
"Streamline Auto Sounds","38.9722522","-76.8457216","9449 Lanham-Severn Rd.","","Seabrook","","301-306-1221","drew@streamlineautosounds.com","Dealer"
"Street Beat Car Audio","37.6472548","-122.0872206","406 W. Harder Rd.","","Hayward","United States","'+1 510-940-5683","shamszereh@gmail.com","Dealer"
"Street Dreamz","33.0345198","-96.9969368","956 S Stemmons Fwy","","Lewisville","","214-222-0744","streetdreamzteam@gmail.com","Dealer"
"Street Innovations","39.1921333","-76.7234145","Dwayne Jones","","Hanover Road Elkridge","","410-796-7966","sales@mdstreetinnovations.com","Dealer"
"Street Scenes Tint","45.093862","-93.3570383","7701 Brooklyn Blvd","","Brooklyn Park","","763-566-0888","tjinpark@hotmail.com","Dealer"
"Street Sound Plus","34.2216312","-118.4851012","16175 Roscoe Blvd.","","North Hills","","818-891-7964","ssptom@yahoo.com","Dealer"
"Street Sounds","36.3042486","-86.6242079","316 W. Main St","","Hendersonville","","615-447-3626","streetsounds@kings-inc.com","Dealer"
"Street Sounds (KS)","39.1353199","-95.6449268","4928 NE Indian Creek Road","","Topeka","","785-554-4406","streetsoundstopeka@gmail.com","Dealer"
"Streetfighter Motorsports LLC","33.6408757","-112.0233407","2728 E Bell Road","","Phoenix","","602-493-2190","rmundell@streetfightermotorsports.com","Dealer"
"Streetnoyz","32.7555317","-117.2086508","3450-A Kurtz St.","","San Diego","","619-260-1747","info@streetnoyz.com","Dealer"
"Streetstyle Inc.","41.9004282","-88.3393844","870 S. Randall Rd.","Suite B","Saint Charles","United States","'+1 630-377-9779","customerservice@streetstyleinc.com","Dealer"
"Studio Reyes","48.168908","-122.1493765","19010 61st Ave NE","","Arlington","","360-644-9455","milnet@gmail.com","Dealer"
"Sturgess Customs","33.9727182","-81.1486267","4262 Augusta Road","","Lexington","","803-705-0341","sturgesscustoms@gmail.com","Dealer"
"Sub Zero Customz Inc.","45.0984221","-93.2660945","271 Commerce Circle S","","Fridley","","763-781-1077","subzerocustomz@gmail.com","Dealer"
"Summit Bodyworks","40.0453303","-104.7978076","13525 CR 8","","Fort Lupton","","303-301-7550","cat.arellano@transwest.com, kara.hamar@summitbodyworks.com","Dealer"
"Sun Soundz Motor Sports","34.9942565","-78.9659781","2656 George Owen Road","","Fayetteville","","910-425-1793","sunsoundzmotorsports@hotmail.com","Dealer"
"Sun Stoppers (ME)","43.687966","-70.3168071","429 Warren Ave.","","Portland","","207-805-1065","tint4u@yahoo.com","Dealer"
"Sun Stoppers (WV)","39.4763254","-80.1506429","700 Fairmont Ave.","","Fairmont","","304-625-1895","wvtintdude@gmail.com","Dealer"
"Sunbusters Window Tint","30.4170912","-97.7455959","11655 Research Blvd.","","Suite C Austin","","127-948-4681 x1","paul@sunbusterstint.com","Dealer"
"Sunset Motors Inc.","35.9446866","-88.8487664","18 Oak Grove Rd","","Milan","United States","'+1 731-695-5917","frank@sunsetmotors.com","Dealer"
"Sunshades Tint & Sounds","30.4290968","-97.7613611","12538 Research Blvd.","","Suite B Austin","","512-249-8468","robert@austinsunshades.com","Dealer"
"Sunwood Upfitters","44.1798751","-72.835362","124 Fiddlers Green","","Waitsfield","","802-496-6666","dave@sunwoodsystems","Dealer"
"Superior Auto Tech","28.0486111","-81.898908","Gus Jimenez","","Lakeland","","863-682-0977","reinaldodavil89@gmail.com","Dealer"
"Superior Custom Designs","40.3196398","-79.8942569","Raymond Podvorec","","Allegheny Square Glassport","","412-744-0110","ray@superiorcustomdesign.com","Dealer"
"Superior Radio & Security","42.4477946","-71.0100082","542 Lincoln Ave","","Saugus","","781-231-5110","superior.radio542@gmail.com","Dealer"
"Superior Systems","42.5393394","-70.918969","82 Margin St.","","Peabody","","978-531-1515","supsys1@verizon.net","Dealer"
"Superior Tint of Boca Raton","26.3804036","-80.0829243","3201 N. Dixie Hwy","","Boca Raton","","561-338-7711","sales@superiortint.net","Dealer"
"Superstar Customs","40.7029485","-74.2352723","16 W. Shelton Terrace","","Hillside","","201-677-8737","simon@superstarcustoms.biz","Dealer"
"Supreme Auto Sounds","40.7114215","-89.5371923","177 Thunderbird Lane","","East Peoria","","309-256-3010","supremeautosounds@gmail.com","Dealer"
"Supreme Dynamics Custom Audio","37.1136648","-113.4832735","1513 East Ridge St.","","A Washington","","801-428-7442","supremedynamicscustomaudio@gmail.com","Dealer"
"Supreme Motorsports Inc.","42.5220173","-70.9176819","10 Aborn St.","","Salem","","978-594-1860","suprememotorsportsinc@gmail.com","Dealer"
"Sweet Sounds, Inc.","44.1802735","-93.9906722","1418 N. Riverfront Road","","Mankato","","507-345-8863","jeff@sweetsounds.com","Dealer"
"Sylvester Electronics","41.9721816","-71.4061876","Robert Sylvester","","Cumberland","","401-725-1630","","Dealer"
"Syracuse Customs","43.207252","-76.1316995","9037 Brewerton Rd.","","Brewerton","United States","'+1 315-699-0000","syracusecustoms@gmail.ocm","Dealer"
"System Addicts","30.1134584","-82.9032764","18484 77th Place","","Building B McAlpin","","954-529-1519","systemaddictsfl@gmail.com","Dealer"
"System Addicts (Irvington)","40.7218195","-74.2323743","727 Lyons Ave.","","Irvington","United States","'+1 973-399-8080","systems75@icloud.com","Dealer"
"Systems Unlimited","47.6302075","-122.1786515","12121 Northup Way suite 115","","Bellevue","","425-649-9880","charles@systemsunltd.com","Dealer"
"TC Customized Inc.","40.3108773","-79.9370429","1227 Route 51","","Jefferson Hills","United States","'+1 412-384-5300","tccustomized@comcast.net","Dealer"
"TM Autosports","46.8753454","-96.8462648","4000 Main Ave.","","Suite C Fargo","","701-239-8468","Tintmastersgf@gmail.com","Dealer"
"TM Systems (Tropospheric Measurement Sys)","49.2901795","-124.8853122","7500 Hector Road","","Port Alberni","Canada","'+1 250-723-4027","jstrain@tmsys.ca","Dealer"
"TOMSCB - CAR AUDIO (Varners LLC)","37.9297041","-87.9045553","806 West Fourth Street","","Mount Vernon","","812-838-4074","mobiletoons@yahoo.com","Dealer"
"TST Distributors Of Illinois","41.7755199","-88.1905615","1701 Quincy Ave.","","Naperville","","630-219-0495","paul@tstdealer.com","Dealer"
"TZ Installation","42.0487939","-88.0830326","3 Golf Center","","Hoffman Estates","","773-710-8890","tzinstallation@gmail.com","Dealer"
"Tailored Automotive Group","34.0551104","-118.0192034","2705 Durfee Ave.","","Unit G El Monte","","626-484-7425","tailored.a.g@gmail.com","Dealer"
"Tampa AutoSports","27.9893946","-82.5171013","4315 W Osborne Ave.","","Tampa","","813-512-7031","wayne@tampaautosports.com","Dealer"
"Tantrum Audio","44.1686555","-87.5796813","3711 Tannery Road","","Two Rivers","","920-242-3945","sales@tantrumaudio.com","Dealer"
"Team Nutz Technology","40.3699956","-80.0103893","3287 Library Road","","Pittsburgh","","412-967-0460","nina@teamnutztechnology.com","Dealer"
"Technicar","26.7136596","-80.1095997","4421 Anette St.","","West Palm Beach","","561-615-4002","technicarwpb@msn.com","Dealer"
"Technik 1","40.7187352","-73.9847294","Gus Tsekenis","","New York","","212-594-5353","info@technik1.com","Dealer"
"Techtronic Services LLC","39.1785566","-76.880788","10616 Hunting Lane","","Columbia","","443-345-9786","dave@techtronicservices.com","Dealer"
"Techworx Inc","42.0915668","-88.2579445","Xavier Neodina","","Dundee Ave East Dundee","","847-844-0349","elneodina@hotmail.com","Dealer"
"Tehno Kar D.O.O","46.0002334","14.0159798","Vojskarska 23A","","","","863-102-8128","zoran.kozamelj@tehnoshop.net","Dealer"
"Terminus GPS","29.9504976","-95.6843446","17610 South Dr","","Cypress","United States","'+1 713-904-5262","pspeckman@terminusgps.com","Dealer"
"Tesla Mods NC","35.7087543","-78.6615142","1113 Transport Drive","","Raleigh","","919-744-4147","sam@teslamodsnc.com","Dealer"
"Test Dealer IL","41.8693939","-87.6236551","1111 11 Street","","Chicago","United States","'+1 312-555-5555","555@555.com","Dealer"
"Texas Audio","32.8797236","-96.6664014","3035 S. Shiloh Road","suite #135","Garland","United States","'+1 972-864-2114","sales@texasaudio.com","Dealer"
"The 3rd Garage LLC","26.2607377","-80.1509139","1951 W. Copans Road","","Boca Raton","","954-597-6297","thethirdgaragellc@gmail.com","Dealer"
"The Action Audio Store LLC","41.7244744","-72.6692088","105 Silas Deane Highway","","Wethersfield","","860-667-6330","actionaudiostore@gmail.com","Dealer"
"The Art of Sound","39.683002","-104.8942314","1830 S. Ulster St.","","Denver","","303-928-0807","jason@theartofsound.biz","Dealer"
"The Audio Connection","39.3980547","-76.5598582","1735 E. Joppa Rd.","","Baltimore","","410-730-5545","dbran@audioconnection.com","Dealer"
"The Audio Pros","34.1564242","-118.3692175","4728 Lankershim Blvd","","North Hollywood","","818-508-8000","info@theaudiopros.com","Dealer"
"The Autoglass Clinic & Mobile Radio Inc.","47.7399411","-122.6494817","RJ Ohnhaus","","Front Street NE Poulsbo","","360-930-1712","rj@theautoglassclinic.com","Dealer"
"The Benz Shop","33.5662294","-112.1147711","2602 W. Townley Ave","","Phoenix","","480-251-5419","thebenzshop@yahoo.com","Dealer"
"The Car Audio Shop","38.4847632","-90.4982449","1520 Gravois Road","","A High Ridge","","636-671-9400","brandon@thecaraudioshop.co","Dealer"
"The Car Shop","39.1080662","-76.8370715","10071 N. 2nd St.","","Laurel","","240-929-7704","thecarshop106@gmail.com","Dealer"
"The Car Stereo Company","37.3709043","-122.0463444","932 W. El Camino Real","","Sunnyvale","","650-938-3511","info@thecarstereocompany.com","Dealer"
"The Driveway","37.3061807","-121.8774742","1691 Villa Stone Dr.","Suite #40","San Jose","United States","'+1 669-342-7072","support@thedriveway.us","Dealer"
"The Entertainer","38.564587","-92.1995925","1407 Southwest Blvd","","Suite A Jefferson City","","573-893-5006","jesse.w.boss@gmail.com","Dealer"
"The Finishing Touch","40.7700692","-74.4752628","Lauren Wagner","","Morristown","","973-538-3025","lauren@thefinishingtouch.net","Dealer"
"The Gear Shop","51.0311991","-114.024779","2501 Alyth Rd SE #1","","Calgary","Canada","'+1 403-261-0011","orders@thegearshop.ca","Dealer"
"The Installation Station (FL)","27.39229","-80.3254188","3802 S US 1","","Fort Pierce","","772-489-8988","installationcn@yahoo.com","Dealer"
"The Mobile Car Audio & Truck Accessories","32.4832293","-97.6926091","5437 Old Granbury Road","","Granbury","","214-616-2544","themobilecaraudio@gmail.com","Dealer"
"The Next Level","39.8772166","-88.9445993","Craig Cherry","","Pershing Road Decatur","","217-791-6666","sales@thenexxtlevel.net","Dealer"
"The Plaza Motor Company","38.6624944","-90.4785495","Joseph Underriner","","Louis","","314-301-1770","junderriner@plazamotors.com","Dealer"
"The RV Shop, Inc","30.4374541","-91.032035","13250 Millerville Greens Boulevard","","Baton Rouge","United States","'+1 225-272-8000","lacie@rvshoponline.com","Dealer"
"The Radio Clinic","35.0244627","-85.1957008","5915 Lee Highway","","Chattanooga","","423-894-0994","lee@theradioclinic.net","Dealer"
"The Radio Dr.","43.0484457","-89.2992236","4806 E Broadway","","Madison","","608-221-9292","radiodr@chorus.net","Dealer"
"The Radio Shop","37.687694","-97.3235239","1211 E. 1st St. N","","Wichita","","316-265-1851","payables.theradioshop@gmail.com","Dealer"
"The Remote Start Guys","39.7397713","-105.1055651","9680 West Colfax Ave","","Lakewood","","720-519-3300","theremotestartguys@gmail.com","Dealer"
"The Sound Concept (Bedford)","41.2234546","-73.7143641","760 N Bedford Rd.","","Bedford Hills","","914-244-0900","mlscvny@gmail.com","Dealer"
"The Sound Guy","33.6410253","-112.0201332","2848 E Bell Rd","","Phoenix","","480-703-9586","strat1953@aol.com","Dealer"
"The Specialists","32.2358028","-110.8984832","4414 E Speedway Blvd.","","Tucson","","520-571-8500","sburke@az-specialists.com","Dealer"
"The Sprinter Shop, Inc.","47.1219625","-122.5418721","14907 Murray Road SW","","Lakewood","","253-244-4472","ken@thesprintershop.com","Dealer"
"The Steele Shop","32.9758167","-96.8519413","2323 Tarpley Road","","Carrollton","","972-478-8000","steeleshop@gmail.com","Dealer"
"The Stereo Shop (Myrtle Beach)","33.7073043","-78.9101708","601 Seaboard St.","","Myrtle Beach","","843-455-5544","scaboo4u@yahoo.com","Dealer"
"The Stereo Shop (West Ridge Rd.)","43.2097103","-77.69793","2613 West Ridge Road","","Rochester","","585-227-1910","stereoshoponline@hotmail.com","Dealer"
"The Stereo Shop (Winston-Salem)","36.1625454","-80.3253862","3807 Reynolda Rd.","","Salem","","336-922-6070","tssgm2016@gmail.com","Dealer"
"The Stereo Store (STESCO)","44.0516841","-123.0997366","472 West 7th Ave.","","Eugene","","541-687-7000","allen_thestereostore@yahoo.com","Dealer"
"The Tint Shop Emporium, Inc.","43.097579","-77.63171","2705 West Henrietta Road","","Rochester","","585-232-8468","jb@tintshop.com","Dealer"
"Theo's Auto","40.6456783","-73.6112494","2637 Willard Ave.","","Baldwin","","347-228-8355","tsamaru@hotmail.com","Dealer"
"Thru-Way Autoglass","43.0543766","-76.093321","2814 Erie Blvd East","","Syracuse","","315-446-4881","timt@thruwayautoglass.com","Dealer"
"Thunder Auto Accessories","36.407179","-99.3740763","3801 Williams Av.","","Woodward","","580-254-0077","kendall@thunderauto.net","Dealer"
"Tier One Motoring","39.9465185","-75.5795616","15 Hagerty Blvd","Suite F","West Chester","","610-788-2226","info@t1m.us","Dealer"
"Timeless Auto Sales","42.40631","-73.2567731","Brian Donovan","","Holmes Road Lenox","","413-464-9785","info@timelessautosales.net","Dealer"
"Tint Boss","26.0650262","-80.2083946","4611 S. State Road 7","","Davie","","954-440-3882","carbouteek@gmail.com","Dealer"
"Tint Crafters Audio & Security","34.1055829","-82.8603555","Jon Vickery","","East Church St Elberton","","706-283-3811","tintcrafterssec@gmail.com","Dealer"
"Tint Shop at Monterey","36.6854702","-121.6714006","36 Quail Run Cir","#103","Salinas","","831-402-3853","oswaldotintman@gmail.com","Dealer"
"Tint Tech LLC","40.4447761","-74.3984784","54 Davison W.","","East Brunswick","","732-390-9200","tinttechnj@gmail.com","Dealer"
"Tint Wizard Sounds","34.3113517","-78.7142525","1400 South JK Powell Blvd","","Whiteville","","910-642-7989","tintwizardsounds@gmail.com","Dealer"
"Tint Works & Car Audio","40.1481952","-83.0894701","420 W. Olentangy St","Unit A","Powell","United States","'+1 614-649-1028","johnbrodek@tintworksohio.com","Dealer"
"Tint World (Auto Sound - Union City)","37.5990119","-122.0811911","30580 Union City Blvd.","","Union City","","510-471-3880","store019@tintworld.com","Dealer"
"Tint World (Bensenville IL)","41.9330144","-87.9400107","1108 South York Road","","Bensenville","","224-588-8468","store024@tintworld.com","Dealer"
"Tint World (Bremerton WA)","47.6249818","-122.6295209","6747 State Hwy 303 NE","","Bremerton","","360-360-2132","store140@tintworld.com","Dealer"
"Tint World (Cary, NC)","35.786623","-78.8093339","1352 NW Maynard Road","","Cary","","919-460-1576","store011@tintworld.com","Dealer"
"Tint World (Cincinnati)","39.0661012","-84.293124","624 Ohio Pike","Suite B","Suite B Cincinnati","","513-513-1239","john.sawyer@tintworld.com","Dealer"
"Tint World (Columbus)","40.065885","-83.0710322","2002 Crown Plaza Dr.","","Columbus","","614-202-6095","josh.van@tintworld.com","Dealer"
"Tint World (Cypress TX)","29.926217","-95.719138","20330 Tuckerton Road","Suite 700","Cypress","","281-720-8588","store111@tintworld.com","Dealer"
"Tint World (Eatontown NJ)","40.3012648","-74.0581097","52 Hwy 35","","Eatontown","","848-216-6211","store070@tintworld.com","Dealer"
"Tint World (Edmonton)","53.5759306","-113.5895377","12227 156 St. NW","","Edmonton","Canada","'+1 587-338-5766","todd.millar@tintworld.com","Dealer"
"Tint World (Fort Collins)","40.5801861","-105.0315416","2415 E Mulberry Street","Unit 3","Fort Collins","","970-818-8099","store126@tintworld.com","Dealer"
"Tint World (Ft. Meyers)","26.5548737","-81.8523206","12931 Metro Pkwy","Ste 1","Fort Myers","","239-994-4338","mark.hamilton@tintworld.com","Dealer"
"Tint World (Grapevine)","32.9285378","-97.0848483","1231 William D Tate Ave.","Suite 100","Grapevine","","817-659-2988","store016@tintworld.com","Dealer"
"Tint World (Houston)","29.730823","-95.519978","3115 Fondren Rd.","","Houston","","561-371-2399","store091@tintworld.com","Dealer"
"Tint World (Katy, TX)","29.7796351","-95.8007285","610 Katy Fort Bend Rd","","Katy","","281-392-7507","store021@tintworld.com","Dealer"
"Tint World (Littleton)","39.567557","-104.9895306","151 W County Line Rd","","Littleton","","303-300-8747","george.boudouris@tintworld.com","Dealer"
"Tint World (Loves Park)","42.3188228","-89.0341231","1510 E. Riverside Blvd.","","Loves Park","","815-940-8000","store055@tintworld.com","Dealer"
"Tint World (Lubbock)","33.5204332","-101.9697996","7018 82nd St","Unit 1","Lubbock","","806-686-6010","","Dealer"
"Tint World (Massapequa Park)","40.6767003","-73.4608352","4722 Sunrose Highway","","Massapequa Park","","516-307-0880","store050@tintworld.com","Dealer"
"Tint World (Medford NY)","40.83834","-72.9958537","3165 Route 112","","Medford","","631-458-1999","store044@tintworld.com","Dealer"
"Tint World (Memphis)","35.1501181","-89.8899032","5112 Old Summer Road","","Memphis","","901-254-8794","matt.sewell@tintworld.com","Dealer"
"Tint World (N. Miami Beach)","25.9260492","-80.16839","1581 NE 163Rd Street","","North Miami Beach","","305-504-8687","store048@tintworld.com","Dealer"
"Tint World (North Chesterfield)","37.4969936","-77.5506451","8280 Midlothian Turnpike","","North Chesterfield","","804-459-8792","store085@tintworld.com","Dealer"
"Tint World (Norwalk - Cavco of Fairfield)","41.1319199","-73.4241497","253 Main Ave.","","Norwalk","","203-299-2538","anthony.cavalcante@tintworld.com","Dealer"
"Tint World (Olathe KS)","38.8831178","-94.7965023","1301 E. Santa Fe Street.","","Olathe","","913-815-8468","austin.gurba@tintworld.com","Dealer"
"Tint World (Ont)","43.8633407","-79.7182091","55 Healey Road","","","","905-951-8468","store4002@tintworld.com","Dealer"
"Tint World (San Marcos)","33.1430265","-117.1933055","1355 Grand Ave,","","San Marcos","","760-298-2672","james.cruz@tintworld.com","Dealer"
"Tint World (Smyrna)","33.8974224","-84.5223842","2274 Atlanta Road SE","","Smyrna","","770-626-0171","store074@tintworld.com","Dealer"
"Tint World (South Bend)","41.7444163","-86.2502301","51522 SR 933","","South Bend","","574-544-2324","store168@tintworld.com","Dealer"
"Tint World (Spring - Hi Class Automotive)","30.1249895","-95.441921","24707 Oakhurst Drive","","Spring","","832-404-2212","store054@tintworld.com","Dealer"
"Tint World (Springfield, PA)","39.919463","-75.3290913","674 Baltimore Pike","Ste 2","Springfield","","610-214-2083","store097@tintworld.com","Dealer"
"Tint World (TX)","29.6156543","-95.5448807","2015 US-90 ALT","","Missouri City","","832-726-0600","store049@tintworld.com","Dealer"
"Tint World (Urbandale IA)","41.6326048","-93.7581504","3970 NW Urbandale Drive","","Urbandale","","515-216-0871","store086@tintworld.com","Dealer"
"Tint World - The Colony","33.0696026","-96.8906054","3800 Main Street","","The Colony","","972-639-5815","jeff.rackley@tintworld.com","Dealer"
"Tint World - Verona","42.9718584","-89.5051712","1200 John P Livesey Blvd","STE 101","Verona","United States","'+1 608-620-0953","Store197@tintworld.com","Dealer"
"Tint World Baltimore","39.2928924","-76.5155717","Paul Sawhney","","North Point Blvd Baltimore","","410-388-0282","jake.tintworldbaltimore@gmail.com","Dealer"
"Tint World Chamblee","33.8971516","-84.3044401","3633 Chamblee Dunwoody Road","","Atlanta","","404-596-8468","tintworldatl@gmail.com, tintworldatlfrank@gmail.com","Dealer"
"Tint World West Palm Beach","26.7063252","-80.0988088","2820 Okeechobee Blvd","","West Palm Beach","","561-629-7648","store026@tintworld.com","Dealer"
"Tint and More","15.9819366","120.5969758","Alvany Urdanata","","","","302-599-1919","tintandmoreus@gmail.com","Dealer"
"Titan Motoring","36.095654","-86.7620146","4302 Kenilwood Drive","","Nashville","","615-457-3529","sales@titanmotoring.net","Dealer"
"Titan Motorworks","43.0939915","-77.595969","2975 Brighton Henrietta Townline Rd","","Rochester","","585-484-1420","titanmwroc@gmail.com","Dealer"
"Todds Electronics","38.7278675","-90.6396357","940 Wolfrum Glen Ct.","","Saint Peters","","314-277-2877","thoeferlin@gmail.com","Dealer"
"Tom's General Auto Repair","33.7466167","-117.9048069","203 N. Fairview St.","#B","Santa Ana","","714-924-4268","giatran@giatntechnology.com","Dealer"
"Tonetech Engineering","40.338662","-74.2872216","5 Floyd Wyckoss Rd","","Morganville","United States","'+1 646-963-7931","joetonnaa@aim.com","Dealer"
"Tony's Street Dreamz","39.6576992","-79.9894218","350 Boyers Ave","","Morgantown","","304-598-7600","tdreamz2@gmail.com","Dealer"
"Tonys Auto Salon Dallas","33.0114981","-96.7005321","925 J Place","Suite 451","Plano","United States","'+1 469-667-3950","tonymobileaudio@yahoo.com","Dealer"
"Top Concept LLC","40.1617997","-75.0835427","1987 Byberry Road","","Huntingdon Valley","","267-242-4992","topconceptllc@gmail.com","Dealer"
"Top Edge","39.8248579","-104.9743136","1015 E 70th Ave","","Denver","","303-242-5135","sales@topedgeonline.com","Dealer"
"Top Notch Tunes","37.1171616","-121.6332566","605 Tennant Ave.","","Suite K Morgan Hill","","408-776-8899","topnotchtunes@yahoo.com","Dealer"
"Total Auto Care, LLC","35.5079273","-85.0013321","158 16th Ave","","Dayton","","423-443-9230","billy@totalautocarellc.com","Dealer"
"Total Auto Pros","33.5149605","-112.0468853","5301 N 16th St.","","Phoenix","","602-280-7767","connie@totalautopros.com","Dealer"
"Total Image Audio","36.9813601","-86.4431953","1340 US 31W By-pass","","Bowling Green","","270-783-4900","totalimageaudiobg@gmail.com","Dealer"
"Total Image Autosport","40.4518649","-80.132101","5654 Steubenville Pike","","Mckees Rocks","","412-788-3980","info@totalimageautosport.com","Dealer"
"Total Performance Center","40.8635543","-74.3728821","740 US46","","Parsippany","","908-731-7505","james@totalperformancecenter.com","Dealer"
"TouRig LLC","39.778493","-105.2360493","1300 Brickyard Road","","Golden","","305-978-1961","christian@mytourig.com; david.kiser@mytourig.com","Dealer"
"Toy Motorsports","42.3518031","-71.4925901","896 Boston Post Rd. E.","","Marlborough","","888-896-6761","billing@toymotorsports.com","Dealer"
"Traffic Jams Motorsports","34.1419012","-83.969006","902 Gainsville Hwy","","Buford","","770-271-3772","trafficjamsmotorsports@gmail.com","Dealer"
"Traffic Jamz","34.0043251","-85.9956655","434 George Wallace Drive","","Gadsden","","256-546-2626","trafficjamzaudiogadsden@gmail.com","Dealer"
"TrailerCraft/Freightliner Of Alaska","61.1364728","-149.8840237","222 West 92nd","","Anchorage","","907-563-3238","tobiasc@trailercraft.com; stevec@trailercraft.com","Dealer"
"Transponder City","41.7574584","-87.8006531","7358 S. Harlem Ave.","","Bridgeview","","708-233-0202","transpondercity@gmail.com","Dealer"
"Tri-Star Auto Sales","41.942877","-73.9976046","518 Albany Ave","","Kingston","","914-475-1843","michael@tri-starautosales.com","Dealer"
"Triix LLC","47.8753787","-97.0505745","1600 47th Ave. S","","Grand Forks","","701-757-3075","triixcustoms@gmail.com","Dealer"
"Triple Threat Customs","40.0242139","-75.0415554","4829 Longshore Ave.","","Philadelphia","","267-324-2576","ssddd400@gmail.com","Dealer"
"Truck 'N Car Concepts","30.4630049","-84.2212516","3270 Mahan Drive","","Tallahassee","","850-656-8800","truckncar@comcast.net","Dealer"
"True Customs","32.6710379","-117.1053102","1316 National City Blvd","","National City","","619-434-8772","truecustoms91950@gmail.com","Dealer"
"Tunes-N-Tint","28.1061211","-81.9741939","4980 US Highway 98N","","Lakeland","","863-614-1164","joe@tunesntint.com","Dealer"
"Twin Cities Auto Spot","44.789861","-93.258841","1171 Cliff Road East","","Burnsville","","612-207-4588","eric@tcautospot.com","Dealer"
"Twin City Euro","36.0720929","-80.3048208","3480 Vest Mill Road","","Winston Salem","","336-708-1416","ttdurgin@gmail.com","Dealer"
"Tyler's Automotive","45.2867735","-122.9460843","3215 NE Wynooski Road","","Newberg","","503-537-4085","tyler@tylersautomotive.com; tanner@tylersautomotive.com","Dealer"
"U.S. Inspection & NDT, LLC","41.971176","-77.845688","337 Cooper Rd","","Genesee","","855-885-5400","wschneider@usindt.com","Dealer"
"U.S. Upfitters","41.907819","-88.0271778","980 N. Lombard Rd.","","Lombard","","630-652-1200","frank@usupfitters.com","Dealer"
"USA GoMobile","45.5219322","-122.9992999","163 SW Freeman Ave.","Suite D","Hillsboro","","503-501-9106","derek@usagomobile.com","Dealer"
"Ultimate Audio","33.9834106","-81.2606601","1220 W. Main St.","","Lexington","","803-359-0007","ultimateaudio@windstream.net","Dealer"
"Ultimate Auto/Audio","28.5616886","-81.4198142","3419 WD Judge Drive","Suite 150","Orlando","","407-849-1100","seangraham@ultimateauto.com","Dealer"
"Ultrasounds","40.6573858","-73.6681532","240 Merrick Road","","Lynbrook","","516-599-2277","ultrasounds1@gmail.com","Dealer"
"Umpqua Auto Restylers","43.1593224","-123.3828281","155 Pheasant Ct.","","Roseburg","","541-375-0224","rhinoliningsdc@gmail.com","Dealer"
"Un Plugged RV's","28.8093267","-81.320312","320 Northstar Ct.","","Sanford","","407-230-8257","unpluggedrv@gmail.com","Dealer"
"Underground Autostyling","27.3896664","-82.5339624","1845 University Pkwy,","","Sarasota","","941-706-4000","sales@undergroundaudioandvideo.com","Dealer"
"Unique Audio (VA)","38.735398","-77.1843594","8178 Newington Road","","Lorton","","703-339-8032","info@uniqueaudiova.com","Dealer"
"Unique Auto Image","38.9379851","-76.7192559","3540 Crain Highway","Suite 184","Bowie","United States","'+1 301-379-3657","mike@uaifleetinstalls.com","Dealer"
"Unique Auto Sound & Security","40.6959859","-73.3866647","6 West Sunrise Highway","","Lindenhurst","","631-956-3703","uniquess@optonline.net","Dealer"
"Unique Car Audio","34.9380612","-82.0256423","9080 Warren H Abernathy Hwy","","Spartanburg","","864-595-0091","uniquecaraudiosc@gmail.com","Dealer"
"Unique Sounds LLC","39.1769503","-119.7336587","3080 US Hwy 50 E","","Carson City","","775-841-2766","uniquesoundz@gmail.com","Dealer"
"United Auto Radio & AC","26.1422804","-80.1342236","922 NE 13th St","","Fort Lauderdale","","954-524-1411","united841@aol.com","Dealer"
"United Automotive Enhancements","39.3253424","-84.4680406","9325 Sutton Place","","West Chester","","513-715-4422","cinci@uae-nas.com; office@uae-nas.com","Dealer"
"Universal Imports","43.1204718","-77.4992507","834 Linden Ave.","","Rochester","","585-381-8677","tjarvis@universalimports.com","Dealer"
"Unlimited Car Stereo","29.6733724","-95.5709033","9610 S. Wilcrest Dr.","","Houston","","713-721-3370","unlimitedcarstereo@yahoo.com","Dealer"
"Upfitters Wholesale","43.5963149","-96.7045076","4521 N Hillcrest Ave","","Sioux Falls","","888-401-1669","zac@upfitterswholesale.com; dylan@upfitterswholesale.com","Dealer"
"Upstate Auto & Sound","41.1273499","-74.0529413","2 Bluefield Drive","#303","Spring Valley","","845-222-1414","uptechny@gmail.com","Dealer"
"Utah Tank And Trailer","40.7324825","-112.0202346","22255 S 5370 West","","South Salt Lake City","","801-956-2700","cason.stucki@utahtank.com","Dealer"
"Utilimaster (IN)","41.7101454","-85.8300108","603 Earthway Blvd.","","Bristol","","574-848-2036","dave.lux@utilimaster.com","Dealer"
"Utility Truck Equipment Mfg., LLC. (UTEM)","31.4287615","-97.1912369","821 Enterprise Blvd.","","Hewitt","","254-857-8813","kzander@utembuckets.com, Jcoats@utecequip.com","Dealer"
"VAIS Technology","39.5586218","-104.8273128","8811 American Way","Unit 125","Englewood","","303-328-5216","d.hopper@vaistech.com","Dealer"
"VIP Customs","38.1813053","-78.3426442","16314 Burnley Road","","Barboursville","","434-981-7509","vinny.tullo@gmail.com","Dealer"
"VIP performance (Vitres d'autos)","45.5246874","-73.46995","2425 chemin chambly","","Longueuil","Canada","'+1 514-622-0118","Fredsstart@outlook.com","Dealer"
"VOLTZ AutoSports, LLC (VOLTZ Auto Truck)","41.1985903","-73.197245","611 Lindley St.","","Bridgeport","","203-366-2453","voltzautosports@gmail.com","Dealer"
"VP Speed Shop LLC / Redwood Vans","38.4086234","-122.7215968","2835 Duke Court","","Santa Rosa","","707-540-0852","barry@vpspeedshop.com","Dealer"
"VP Supply","43.094518","-77.5793314","3445 Winton Place","","Rochester","","585-424-1820","chrismatthews@stopattheshop.com","Dealer"
"Valley Audio Install","47.6584704","-117.2974311","111 N Vista Rd.","Suite 5G","G Spokane Valley","","509-217-0724","jeff@valleyaudioinstall.com","Dealer"
"Valley Hi Vans & Off-Grid Solutions","40.2332695","-83.3510517","1002 Columbus Ave.","","Marysville","","937-407-9600","contact@valleyhivans.com","Dealer"
"Van America","37.1253478","-113.6066327","976 North 1100 West","","St George","","435-619-2100","kent@vanamerica.com","Dealer"
"Van Damme Conversions","33.1489967","-117.2222767","2525 Pioneer Ave.","Suite 4","Vista","","954-562-5153","vandammeconversions@gmail.com","Dealer"
"Van Life","32.279114","-90.175425","105 Hwy 80 E","","Pearl","","833-433-3332","brian@van.life","Dealer"
"Van Life Concepts","33.5028524","-101.944395","5841 100th St","","Lubbock","","346-256-6752","al_rosendo@vanlifeconcepts.com","Dealer"
"Van Pro Inc.","45.4577595","-73.724448","1895 55th Ave.","","Dorval","Canada","'+1 514-631-9399","rmarrone@vanproinc.com","Dealer"
"Van Sharks","29.8673399","-95.5600481","111050 W. Little York Road","Suite J","Houston","United States","'+1 832-374-6815","paul@vansharks.com","Dealer"
"Van and Truck Equipment Upfitters Inc.","40.8593592","-74.0499746","600 Huyler Street","","South Hackensack","","201-426-0271","accounting@vanandtruckequipment.com","Dealer"
"VanCraft LLC","40.7254926","-111.9268454","2111 S 1260 W.","","Salt Lake City","","207-502-5463","orders@van-craft.com","Dealer"
"VanUp (CA)","38.5541708","-121.6855142","5200 Chiles Road","","Davis","","623-299-4496","aschaid@lamesarv.com; hperez@vanupoffroad.com","Dealer"
"VanUp, LLC (AZ)","33.4783133","-111.7350351","3427 N Greenfield Rd.","","Mesa","","623-887-9711","lgarrard@vanupoffroad.com","Dealer"
"Vancini Conversions","43.1905494","-80.0343962","1480 Sandhill Drive","Unit 5","Ancaster","Canada","'+1 289-880-8787","accounting@vanciniconversions.com","Dealer"
"Vanguard Automotive Design","41.2176546","-73.9810287","24B Holt Drive","","Stony Point","","845-553-9500","info@vanguardautodesign.com","Dealer"
"Vanlife Customs (Dave In Action LLC)","39.8116606","-104.9794578","6321 Washington St.","Unit L","Unit L Denver","","720-663-8654","dave@vanlifecustoms.com","Dealer"
"Vanmade LLC","45.414027","-122.5679704","15140 SE 82nd Drive","Suite 200","Clackmas","","503-941-0741","simon@vanmadegear.com","Dealer"
"Vanovation","40.2191563","-111.6395662","1106 S. State St.","Unit 10","Provo","","801-382-9915","adrian@vanovation.us","Dealer"
"Vantasy Escapes","25.8452483","-80.1825153","7600 NE 7th Ave.","","Miami","United States","'+1 305-609-8184","laura@vantasyescapes.com","Dealer"
"Vanworks (Fort Collins)","40.589963","-105.0614038","900 East Lincoln Ave.","","Fort Collins","","970-294-4024","hdurant@Vanworks.com; dwood@vanworks.com","Dealer"
"Vartan.Rocks (Vartan USA LLC)","47.864193","-122.0007595","14700 172nd Drive SE","Suite 3","Monroe","United States","'+1 360-217-7971","l.roach@vartan.aero","Dealer"
"Vega Designs LLC","36.1263257","-86.7731771","501 Craighead St","","Nashville","","615-806-9081","sales@vegadesignstn.com","Dealer"
"Vehicle Accessory Specialists","41.0183927","-81.8596689","109 Pleasant View Drive","","Seville","","216-314-4676","vehaccspec@gmail.com","Dealer"
"Vernon's Signature Audio","33.5629491","-101.8971212","3807 34th St.","","Lubbock","","","","Dealer"
"Vertex Van Company","40.0303829","-105.1797189","3075 75th Street","Unit B","Boulder","","917-856-0293","luke@vertexvans.com","Dealer"
"Victory Road Performance","38.9002565","-104.8369799","633 Elkton Drive","","Colorado Springs","United States","'+1 540-751-8773","info@vrpspeed.com","Dealer"
"Video Kingdom Electronics","40.7001511","-99.0823132","18 W 25th St","","Kearney","","308-234-6425","geoffroen@hotmail.com","Dealer"
"Vogt RV","32.7842388","-97.2654157","5624 Airport Freeway","","Haltom City","","817-831-4222","parts@vogtrv.com","Dealer"
"Vogue Autowerks","47.7020515","-122.1805382","11336 120th Ave NE","Suite 126","Kirkland","","206-228-6116","andy@vogueautowerks.com","Dealer"
"Volition Components LLC","39.9156816","-105.0901396","165 Commerce St.","Unit B","Broomfield","","720-689-4635","info@volitioncomponents.com","Dealer"
"Volta Power Systems","42.8502821","-86.0928386","12550 Superior Ct","","Holland","","616-226-4220","mike.borgelt@voltaps.com","Dealer"
"WM Locksmith LLC","25.7690492","-80.2958937","145 SW 62nd Ave.","","Miami","","305-609-5016","wmlocksmith@gmail.com","Dealer"
"Wanderlust Conversions, LLC","36.1016663","-79.8639433","4505 Forest Glen Road","","Greensboro","","336-901-0098","wanderlust.conversions@gmail.com","Dealer"
"Weaver Auto Repair","35.0576219","-90.0934416","3338 Weaver Road","","Memphis","","901-454-3205","weaverauto@gmail.com","Dealer"
"West Coast Adventure Vehicles","39.4895349","-121.5738364","2720 Feather River Blvd.","","Oroville","","530-513-7153","info@westcoastadventurevehicles.com","Dealer"
"West Coast Automotive Repair & Rest","33.4344581","-117.6240938","216 Calle De Los Molinos","","San Clemente","","949-492-0710","wcautoresto@gmail.com","Dealer"
"West Coast Car Audio","38.0212501","-121.2912859","1709 Hammer Lane","","Stockton","","209-956-4500","westcoastca1709@gmail.com","Dealer"
"West Coast Cellular Systems","33.6794442","-117.2625707","22711 Running Rabbit Ct.","","Canyon Lake","","909-816-6484","wccs@verizon.net","Dealer"
"West End Motor Company","35.9039729","-84.0624346","518 Villa Crest Drive","","Knoxville","","865-693-2284","steve@westendmotor.com","Dealer"
"Westfield Autoworks","40.648701","-74.3428973","400 Central Ave.","","Westfield","","908-232-9717","westfieldautoworks@gmail.com","Dealer"
"Westminster Speed","39.5875773","-76.9986604","202 Pennsylvania Ave.","","Westminster","","410-857-5300","mark@westminsterspeed.com","Dealer"
"Westwind Coachworks","27.2531896","-82.526021","1650 Blakemore Lane","","Sarasota","United States","'+1 417-880-9172","parts@westwindcoachworks.com","Dealer"
"Wheel Dynamix","42.2834157","-71.3744098","135 West Central St.","","Natick","","508-560-0257","jeff@wheeldynamix.com","Dealer"
"Wheel to Waves","44.9232169","-93.6922824","6619 Bartlett Blvd.","","Mound","","612-437-6212","dave@wheelstowaves.com","Dealer"
"White Glove Auto","35.9776213","-95.8896919","12818 S. Memorial Dr.","Unit 116","Bixby","","918-806-2780","info@whitegloveautotulsa.com","Dealer"
"White River Overland","39.2200796","-106.8595785","406 Aspen Business Center","Suite A","Suite A Aspen","","970-925-2287","scott@whiteriveroverland.com","Dealer"
"Wicked CAS","42.8733286","-71.0845818","45 RT 125","Unit 1","Kingston","","603-642-4222","wickedcas@aol.com","Dealer"
"Wicked Whips","40.5980124","-73.9733839","2232 McDonald Ave","","Brooklyn","","917-440-2848","davesaks212@aol.com","Dealer"
"Willow Grove Autotop & Sound","40.142354","-75.1121488","43 N. York Rd","","Willow Grove","","215-830-8384","jsound2@comcast.net","Dealer"
"Wired By Fern Inc","37.5929867","-122.0123293","34201 Zwissig Way","","Union City","","510-593-9477","wiredbyfern@gmail.com","Dealer"
"Wired Customs LLC","30.0562752","-95.457755","2810 Louette Road","","Spring","","832-752-2197","robert@wiredcustoms.com","Dealer"
"Wired Electronics","40.6317655","-74.2392912","601 East Edgar Road","","Linden","","908-208-4131","wirednj@yahoo.com","Dealer"
"Wolfpack Overland","39.8246076","-104.979004","625 East 70th Avenue","Unit 1W/1E","Denver","","303-483-0712","greg@wolfpackoverland.com","Dealer"
"Woofer Electronics Distributors, Inc.","41.9709573","-87.7452043","4970 N. Elston Ave.","","Chicago","","773-283-8286","syoo@wooferelectronics.com","Dealer"
"Wow Mobile Electronics","42.4541529","-82.9654879","21165 Gratiot Ave","","Eastpointe","","586-779-6969","sales@wowelectronics.com","Dealer"
"Wrap It Up LBK","33.5498922","-101.9215245","5062 50th St","","Lubbock","","806-209-2767","wrapituplbk@gmail.com","Dealer"
"Xaver's Foreign Car Service","41.5089876","-74.0896615","144 RT 17K","","Newburgh","","845-564-2430","xaversforeigncar@gmail.com","Dealer"
"Xclusive Audio LLC","41.7576119","-88.3193375","111 W. Benton St.","","Aurora","","630-621-6032","xclusiveaudiollc@gmail.com","Dealer"
"Xtreme Autosound","38.1953604","-85.6525787","3917 Bardstown Rd.","","Louisville","United States","'+1 502-493-0011","xtremeautosoundky@gmail.com","Dealer"
"Xtreme Custom Motors","33.6488575","-83.9991842","1403 Iris Drive SE","Suite C","Conyers","United States","'+1 470-444-1675","cjhouston@xtremecustommotors.com","Dealer"
"Xtreme HID","37.3149825","-121.8380963","1075 Tully Road","","San Jose","","408-271-0118","tien_nguyen010@me.com","Dealer"
"Xtreme Kustom","41.6010494","-87.6038645","518 E 162nd St.","","South Holland","","708-713-4447","xtremekustomsbusiness@yahoo.com","Dealer"
"Xtreme Rides LLC","41.666954","-72.7539189","475 John Downey Drive","","New Britain","","860-505-8620","hectorxtreme860@att.net","Dealer"
"Ysound Mobile LLC","39.1327304","-77.1827642","601 Paradise Ct.","","Gaithersburg","United States","'+1 703-582-2455","ysoundmobile@gmail.com","Dealer"
"ZIC Motorsports","41.9771577","-88.2207194","1281 Humbracht Circle","Suite E","Bartlett","","844-942-6686","sales@zicmoto.com","Dealer"
"Zweck, LLC","25.6494143","-80.3397302","12910 SW 89TH Ct","","Miami","United States","'+1 305-908-8911","parts@zweck.com","Dealer"
